{"type":"FeatureCollection","source":"OpenStreetMap contributors, ODbL \u2014 locality boundaries via Nominatim","features":[{"type":"Feature","properties":{"name":"Aireys Inlet","made_of":["Aireys Inlet"],"osm":["relation/2732095"]},"geometry":{"type":"MultiPolygon","coordinates":[[[[144.06405,-38.44122],[144.09421,-38.44499],[144.0965,-38.44816],[144.09279,-38.4477],[144.09269,-38.44839],[144.09395,-38.45087],[144.09646,-38.45199],[144.09565,-38.45372],[144.09693,-38.45582],[144.09599,-38.45704],[144.09614,-38.45776],[144.0969,-38.45861],[144.0994,-38.45845],[144.09922,-38.46074],[144.10169,-38.46095],[144.09805,-38.46341],[144.09785,-38.46485],[144.09543,-38.46412],[144.09454,-38.46441],[144.09425,-38.46858],[144.10444,-38.46934],[144.10502,-38.46813],[144.10674,-38.46714],[144.10666,-38.46617],[144.1098,-38.46145],[144.1174,-38.45794],[144.11851,-38.45509],[144.11839,-38.45289],[144.11957,-38.45102],[144.1199,-38.44892],[144.12341,-38.44661],[144.1249,-38.44626],[144.12509,-38.44528],[144.12713,-38.443],[144.12828,-38.43963],[144.13091,-38.43737],[144.12413,-38.43327],[144.12548,-38.43037],[144.08715,-38.40649],[144.07349,-38.41852],[144.06826,-38.4198],[144.06405,-38.44122]]]]}},{"type":"Feature","properties":{"name":"Anglesea","made_of":["Anglesea"],"osm":["relation/2732096"]},"geometry":{"type":"MultiPolygon","coordinates":[[[[144.08715,-38.40649],[144.12548,-38.43037],[144.12413,-38.43327],[144.13091,-38.43737],[144.13166,-38.43573],[144.13383,-38.43456],[144.13976,-38.43218],[144.14737,-38.43043],[144.16849,-38.42935],[144.18433,-38.42922],[144.18467,-38.42859],[144.18551,-38.42867],[144.18586,-38.42804],[144.18503,-38.42813],[144.18535,-38.42763],[144.18414,-38.42847],[144.18099,-38.4283],[144.18034,-38.42769],[144.17922,-38.42587],[144.17901,-38.42325],[144.18036,-38.42102],[144.18002,-38.42005],[144.18119,-38.41837],[144.18453,-38.41598],[144.18574,-38.41572],[144.18602,-38.41479],[144.18851,-38.414],[144.19268,-38.41422],[144.19312,-38.41163],[144.19431,-38.40991],[144.20029,-38.4066],[144.20698,-38.40458],[144.21212,-38.40388],[144.22468,-38.39986],[144.22924,-38.39891],[144.23425,-38.37295],[144.22813,-38.37266],[144.20813,-38.37971],[144.20546,-38.3811],[144.20409,-38.38081],[144.20545,-38.36992],[144.19606,-38.35957],[144.19899,-38.35143],[144.20236,-38.34539],[144.20324,-38.34078],[144.16675,-38.33651],[144.16555,-38.34292],[144.16168,-38.34039],[144.16172,-38.33861],[144.15977,-38.33675],[144.14929,-38.33227],[144.14936,-38.33098],[144.15225,-38.32679],[144.15229,-38.32414],[144.15068,-38.32138],[144.14095,-38.3222],[144.13606,-38.32621],[144.12805,-38.33085],[144.10874,-38.32462],[144.10747,-38.3326],[144.10539,-38.36313],[144.10017,-38.39501],[144.08715,-38.40649]]]]}},{"type":"Feature","properties":{"name":"Apollo Bay","made_of":["Apollo Bay"],"osm":["relation/2738119"]},"geometry":{"type":"MultiPolygon","coordinates":[[[[143.58633,-38.75018],[143.58721,-38.7517],[143.58857,-38.75228],[143.59207,-38.75556],[143.60046,-38.76052],[143.6032,-38.76101],[143.60438,-38.76225],[143.60295,-38.77238],[143.60367,-38.77245],[143.60407,-38.77497],[143.60559,-38.77739],[143.60844,-38.77876],[143.61192,-38.77868],[143.61415,-38.78056],[143.61531,-38.78303],[143.61467,-38.78411],[143.61455,-38.78672],[143.61581,-38.78893],[143.61553,-38.79081],[143.61835,-38.79444],[143.62128,-38.7937],[143.62221,-38.79252],[143.6249,-38.79297],[143.62817,-38.79196],[143.63687,-38.79149],[143.64013,-38.79066],[143.64352,-38.79174],[143.64607,-38.79138],[143.64755,-38.7829],[143.64423,-38.78369],[143.64545,-38.7771],[143.65148,-38.77774],[143.65181,-38.77591],[143.65054,-38.77576],[143.65102,-38.773],[143.65213,-38.773],[143.65237,-38.77183],[143.65089,-38.77165],[143.65031,-38.77044],[143.65107,-38.77025],[143.65043,-38.7699],[143.65299,-38.76783],[143.65458,-38.76765],[143.65634,-38.76827],[143.65673,-38.76759],[143.65751,-38.76835],[143.65734,-38.76928],[143.66556,-38.77018],[143.66828,-38.76684],[143.67961,-38.76118],[143.67992,-38.76067],[143.67926,-38.76009],[143.67476,-38.75895],[143.67472,-38.75718],[143.67424,-38.75804],[143.67283,-38.75802],[143.67116,-38.75645],[143.67041,-38.75238],[143.67154,-38.74818],[143.67772,-38.74071],[143.68127,-38.73766],[143.68613,-38.73504],[143.69023,-38.73358],[143.69215,-38.7338],[143.69852,-38.73028],[143.70175,-38.72944],[143.70137,-38.72669],[143.69626,-38.72063],[143.69678,-38.72028],[143.69574,-38.71896],[143.69305,-38.71655],[143.69156,-38.71081],[143.68969,-38.70965],[143.69019,-38.70721],[143.70112,-38.70846],[143.70328,-38.70662],[143.70204,-38.70621],[143.70229,-38.70519],[143.70177,-38.70441],[143.70237,-38.70207],[143.70335,-38.70186],[143.70275,-38.69962],[143.7011,-38.69964],[143.70021,-38.69848],[143.69738,-38.69776],[143.69547,-38.69456],[143.69687,-38.69245],[143.6981,-38.69245],[143.69704,-38.69137],[143.69819,-38.6915],[143.69987,-38.68965],[143.70095,-38.68943],[143.70235,-38.68761],[143.70566,-38.68608],[143.70501,-38.68476],[143.70562,-38.6826],[143.66503,-38.67774],[143.6641,-38.68053],[143.66316,-38.68127],[143.66383,-38.68315],[143.66338,-38.68538],[143.66196,-38.68707],[143.64482,-38.68535],[143.6318,-38.68323],[143.60369,-38.68038],[143.59847,-38.68498],[143.59747,-38.68655],[143.59327,-38.68743],[143.59356,-38.68806],[143.59631,-38.68897],[143.59674,-38.69095],[143.59349,-38.69143],[143.59331,-38.69264],[143.59232,-38.69365],[143.58956,-38.69343],[143.58929,-38.69568],[143.58785,-38.6968],[143.58829,-38.69867],[143.59039,-38.70054],[143.59125,-38.70242],[143.59677,-38.70669],[143.59659,-38.70846],[143.59727,-38.70958],[143.59641,-38.71071],[143.5975,-38.71206],[143.59749,-38.71305],[143.59665,-38.71534],[143.59546,-38.71559],[143.59556,-38.71648],[143.59337,-38.71858],[143.59565,-38.72085],[143.59326,-38.72141],[143.5924,-38.72303],[143.59312,-38.72512],[143.59152,-38.72982],[143.59233,-38.73085],[143.59504,-38.73135],[143.59695,-38.7333],[143.59526,-38.7355],[143.59697,-38.73597],[143.598,-38.73689],[143.59687,-38.73885],[143.59825,-38.73987],[143.59851,-38.74137],[143.60016,-38.74188],[143.59991,-38.74292],[143.58865,-38.74739],[143.5877,-38.74661],[143.58633,-38.75018]]]]}},{"type":"Feature","properties":{"name":"Armstrong Creek","made_of":["Armstrong Creek"],"osm":["relation/3370255"]},"geometry":{"type":"MultiPolygon","coordinates":[[[[144.33338,-38.24285],[144.34263,-38.24396],[144.34231,-38.24557],[144.35157,-38.24667],[144.35082,-38.25055],[144.3922,-38.25547],[144.39083,-38.25494],[144.38826,-38.25171],[144.39162,-38.23429],[144.39335,-38.23424],[144.39787,-38.23112],[144.4013,-38.23233],[144.41888,-38.2202],[144.41765,-38.21998],[144.41316,-38.21447],[144.41207,-38.21417],[144.40935,-38.21495],[144.40609,-38.21507],[144.40234,-38.21947],[144.40065,-38.21992],[144.39896,-38.21951],[144.39882,-38.22025],[144.38137,-38.21968],[144.37579,-38.21903],[144.37476,-38.22386],[144.33778,-38.21958],[144.33338,-38.24285]]]]}},{"type":"Feature","properties":{"name":"Bannockburn","made_of":["Bannockburn"],"osm":["relation/3117845"]},"geometry":{"type":"MultiPolygon","coordinates":[[[[144.09262,-38.03361],[144.10099,-38.03596],[144.09563,-38.0643],[144.09889,-38.06777],[144.12301,-38.07062],[144.12317,-38.07291],[144.12452,-38.07387],[144.12442,-38.0758],[144.15853,-38.07961],[144.15697,-38.08807],[144.17516,-38.09029],[144.17208,-38.1067],[144.17235,-38.10783],[144.17148,-38.10918],[144.17148,-38.11056],[144.18954,-38.11302],[144.19963,-38.06047],[144.20148,-38.06157],[144.20464,-38.05831],[144.21392,-38.06063],[144.21786,-38.05737],[144.21905,-38.05751],[144.22192,-38.04043],[144.22054,-38.04067],[144.21949,-38.04158],[144.21633,-38.04029],[144.21699,-38.0396],[144.21596,-38.03784],[144.21635,-38.03574],[144.21546,-38.03575],[144.21504,-38.03401],[144.21403,-38.03327],[144.21283,-38.03384],[144.21132,-38.03244],[144.21264,-38.03012],[144.215,-38.02901],[144.21493,-38.02855],[144.2127,-38.02676],[144.21123,-38.02683],[144.21167,-38.02567],[144.21078,-38.02436],[144.20894,-38.02316],[144.20756,-38.02305],[144.20704,-38.02437],[144.20633,-38.02349],[144.2052,-38.02949],[144.20206,-38.03183],[144.20205,-38.03339],[144.20508,-38.03826],[144.19281,-38.02971],[144.17814,-38.02459],[144.17965,-38.02173],[144.17566,-38.01911],[144.17824,-38.01654],[144.16831,-38.00999],[144.17327,-38.00857],[144.17299,-38.00687],[144.17097,-38.00655],[144.16799,-38.0087],[144.16645,-38.00844],[144.16451,-38.00681],[144.16606,-38.00512],[144.16686,-38.00562],[144.16772,-38.00496],[144.16976,-38.00505],[144.17007,-38.00417],[144.16914,-38.00352],[144.16922,-38.00176],[144.16784,-38.00139],[144.16872,-38.00116],[144.16852,-38.00077],[144.16667,-38.00046],[144.16602,-37.99969],[144.16572,-38.00036],[144.16474,-37.99978],[144.16255,-37.99679],[144.16132,-37.99388],[144.16286,-37.99438],[144.16248,-37.99275],[144.16359,-37.99278],[144.16381,-37.99192],[144.16537,-37.99162],[144.16633,-37.99069],[144.16179,-37.98986],[144.16215,-37.98867],[144.16171,-37.98725],[144.16302,-37.987],[144.15996,-37.98507],[144.14412,-37.9894],[144.14553,-37.99119],[144.14024,-37.99328],[144.13997,-37.99564],[144.13771,-37.9966],[144.1379,-37.99704],[144.13483,-37.99886],[144.13504,-37.99949],[144.13414,-38.00047],[144.13486,-38.00111],[144.13482,-38.00211],[144.13414,-38.0026],[144.11333,-38.00016],[144.11099,-38.01275],[144.09971,-38.01147],[144.09716,-38.00977],[144.09262,-38.03361]]]]}},{"type":"Feature","properties":{"name":"Barwon Heads","made_of":["Barwon Heads"],"osm":["relation/2456146"]},"geometry":{"type":"MultiPolygon","coordinates":[[[[144.469,-38.28686],[144.47436,-38.28794],[144.48601,-38.28838],[144.4996,-38.29079],[144.50108,-38.29024],[144.5016,-38.28954],[144.49945,-38.28912],[144.49681,-38.28674],[144.49581,-38.28436],[144.49441,-38.28276],[144.4966,-38.28261],[144.49742,-38.27929],[144.49951,-38.27504],[144.50807,-38.26761],[144.50825,-38.26591],[144.50736,-38.26466],[144.50497,-38.26371],[144.49533,-38.26459],[144.49288,-38.26239],[144.48917,-38.26134],[144.48812,-38.2591],[144.48736,-38.25865],[144.48473,-38.2585],[144.48365,-38.25677],[144.48069,-38.25831],[144.47923,-38.2595],[144.4799,-38.26136],[144.47911,-38.26258],[144.4786,-38.26594],[144.47723,-38.26665],[144.47812,-38.2686],[144.47743,-38.27024],[144.47799,-38.27128],[144.47529,-38.2742],[144.47576,-38.27817],[144.47393,-38.28237],[144.46925,-38.28435],[144.469,-38.28686]]]]}},{"type":"Feature","properties":{"name":"Beech Forest","made_of":["Beech Forest"],"osm":["relation/2743365"]},"geometry":{"type":"MultiPolygon","coordinates":[[[[143.49344,-38.6516],[143.49463,-38.65259],[143.49707,-38.65315],[143.49925,-38.65461],[143.50042,-38.65634],[143.50273,-38.65713],[143.50252,-38.65824],[143.50099,-38.6598],[143.50028,-38.66297],[143.50074,-38.66303],[143.50053,-38.66435],[143.49776,-38.66655],[143.49757,-38.66744],[143.5064,-38.67231],[143.50523,-38.67503],[143.50423,-38.67503],[143.50467,-38.67663],[143.50274,-38.67706],[143.50103,-38.67678],[143.50014,-38.67744],[143.50015,-38.67899],[143.49826,-38.68308],[143.49813,-38.68525],[143.49892,-38.68575],[143.49894,-38.68731],[143.49818,-38.6876],[143.49746,-38.6903],[143.49763,-38.69237],[143.50015,-38.69362],[143.49911,-38.69397],[143.49908,-38.6954],[143.49983,-38.69577],[143.50294,-38.69526],[143.5049,-38.69579],[143.50845,-38.69811],[143.50949,-38.69783],[143.51284,-38.69929],[143.51663,-38.69822],[143.5189,-38.69635],[143.52218,-38.695],[143.52482,-38.69347],[143.52557,-38.69241],[143.52629,-38.69251],[143.52734,-38.69172],[143.52881,-38.6927],[143.53118,-38.69314],[143.53222,-38.69264],[143.53261,-38.69152],[143.53614,-38.69046],[143.53772,-38.69118],[143.53907,-38.69101],[143.5433,-38.6885],[143.54363,-38.68728],[143.54616,-38.68575],[143.54701,-38.68483],[143.54761,-38.68279],[143.55045,-38.68254],[143.55191,-38.68185],[143.55527,-38.68195],[143.55457,-38.68087],[143.55489,-38.68025],[143.55265,-38.67735],[143.55337,-38.67666],[143.55326,-38.6742],[143.55139,-38.67142],[143.55267,-38.67096],[143.55326,-38.66988],[143.55131,-38.66905],[143.55232,-38.66851],[143.5537,-38.66927],[143.55391,-38.67101],[143.55609,-38.67275],[143.55882,-38.67125],[143.56038,-38.66964],[143.56293,-38.67114],[143.56339,-38.67086],[143.56266,-38.67063],[143.56319,-38.67002],[143.56609,-38.66869],[143.56671,-38.66901],[143.56666,-38.67047],[143.56874,-38.67002],[143.56865,-38.67052],[143.56924,-38.67041],[143.57054,-38.66973],[143.57071,-38.66902],[143.56952,-38.66763],[143.57077,-38.66705],[143.5717,-38.66695],[143.5721,-38.66798],[143.57278,-38.66808],[143.57518,-38.66713],[143.57703,-38.66824],[143.57836,-38.66785],[143.57883,-38.6683],[143.57829,-38.66868],[143.57584,-38.66877],[143.57624,-38.66989],[143.57512,-38.67],[143.57514,-38.67044],[143.58009,-38.67139],[143.57947,-38.67249],[143.58003,-38.67378],[143.57873,-38.67603],[143.57959,-38.6767],[143.5787,-38.67849],[143.57897,-38.67991],[143.5798,-38.68021],[143.58095,-38.68181],[143.58342,-38.68191],[143.58351,-38.68262],[143.5849,-38.68354],[143.58523,-38.68518],[143.58625,-38.68506],[143.58768,-38.68607],[143.58905,-38.68801],[143.59183,-38.68796],[143.59288,-38.68733],[143.59747,-38.68655],[143.59847,-38.68498],[143.60369,-38.68038],[143.6318,-38.68323],[143.64482,-38.68535],[143.66196,-38.68707],[143.66338,-38.68538],[143.66383,-38.68315],[143.66316,-38.68127],[143.6641,-38.68053],[143.66527,-38.67738],[143.66429,-38.67489],[143.66523,-38.67345],[143.66521,-38.67127],[143.6658,-38.66981],[143.66903,-38.66653],[143.66864,-38.66328],[143.67033,-38.66206],[143.67004,-38.66122],[143.67047,-38.66041],[143.67267,-38.65932],[143.67234,-38.65818],[143.67135,-38.65758],[143.6728,-38.65718],[143.67367,-38.65591],[143.67326,-38.65467],[143.67378,-38.65262],[143.67609,-38.65163],[143.67812,-38.6492],[143.67917,-38.64872],[143.67959,-38.64767],[143.6786,-38.64647],[143.6791,-38.64391],[143.6763,-38.6432],[143.67397,-38.64465],[143.6709,-38.64439],[143.67034,-38.64492],[143.6727,-38.63312],[143.67575,-38.62987],[143.67504,-38.62775],[143.67608,-38.62566],[143.67417,-38.62441],[143.67505,-38.62088],[143.67394,-38.62017],[143.67352,-38.61888],[143.67174,-38.61877],[143.67098,-38.6178],[143.67098,-38.61598],[143.66934,-38.6146],[143.6694,-38.61276],[143.66673,-38.61075],[143.6665,-38.6088],[143.66288,-38.60657],[143.66024,-38.60211],[143.66011,-38.59977],[143.65735,-38.59803],[143.65749,-38.59459],[143.65511,-38.59319],[143.65486,-38.59227],[143.65367,-38.5918],[143.6524,-38.59215],[143.65256,-38.58939],[143.65096,-38.58814],[143.65078,-38.58701],[143.64976,-38.58609],[143.64795,-38.5857],[143.64838,-38.58451],[143.64784,-38.58315],[143.65093,-38.57994],[143.64997,-38.57828],[143.65228,-38.57653],[143.65118,-38.57503],[143.65213,-38.57168],[143.64452,-38.56982],[143.64141,-38.56968],[143.63986,-38.56894],[143.63854,-38.57164],[143.63077,-38.57673],[143.62753,-38.57588],[143.6252,-38.57635],[143.62373,-38.57603],[143.62303,-38.57827],[143.62234,-38.5787],[143.61755,-38.57882],[143.61581,-38.57947],[143.6167,-38.58145],[143.61613,-38.58415],[143.60973,-38.58536],[143.5966,-38.58368],[143.58585,-38.5848],[143.57603,-38.58367],[143.57292,-38.58043],[143.57289,-38.57787],[143.57221,-38.57632],[143.55923,-38.57481],[143.5596,-38.57562],[143.54134,-38.57518],[143.54138,-38.57376],[143.52902,-38.57234],[143.52561,-38.59137],[143.52748,-38.59162],[143.52582,-38.59999],[143.5276,-38.6004],[143.52838,-38.60111],[143.52863,-38.60264],[143.52947,-38.60294],[143.53807,-38.60379],[143.53774,-38.60576],[143.53706,-38.60573],[143.53734,-38.6097],[143.52831,-38.65599],[143.49344,-38.6516]]]]}},{"type":"Feature","properties":{"name":"Bellarine","made_of":["Bellarine"],"osm":["relation/3372179"]},"geometry":{"type":"MultiPolygon","coordinates":[[[[144.58601,-38.1347],[144.59682,-38.1465],[144.6492,-38.15261],[144.6535,-38.13099],[144.62657,-38.12763],[144.6286,-38.11628],[144.62807,-38.11623],[144.62849,-38.11399],[144.62889,-38.11407],[144.62851,-38.11386],[144.62893,-38.11161],[144.62571,-38.11422],[144.62498,-38.11452],[144.62473,-38.11413],[144.62072,-38.11581],[144.6204,-38.11529],[144.61654,-38.11756],[144.61545,-38.11885],[144.61277,-38.11985],[144.61035,-38.12199],[144.60921,-38.12205],[144.60689,-38.12398],[144.60551,-38.12397],[144.59461,-38.12911],[144.58878,-38.13372],[144.58601,-38.1347]]]]}},{"type":"Feature","properties":{"name":"Bellbrae","made_of":["Bellbrae"],"osm":["relation/2723381"]},"geometry":{"type":"MultiPolygon","coordinates":[[[[144.18494,-38.33863],[144.20324,-38.34078],[144.20236,-38.34539],[144.19899,-38.35143],[144.19606,-38.35957],[144.20545,-38.36992],[144.20409,-38.38081],[144.20546,-38.3811],[144.20813,-38.37971],[144.22918,-38.37238],[144.23782,-38.37341],[144.24207,-38.373],[144.24332,-38.37217],[144.24421,-38.36839],[144.25348,-38.36952],[144.25624,-38.35509],[144.27916,-38.35785],[144.2825,-38.34073],[144.2808,-38.34052],[144.2813,-38.33793],[144.28619,-38.3385],[144.28647,-38.33691],[144.28789,-38.33707],[144.28913,-38.33086],[144.28621,-38.32904],[144.28513,-38.3274],[144.28243,-38.3272],[144.28012,-38.32844],[144.28342,-38.31081],[144.21058,-38.30228],[144.20774,-38.31676],[144.1957,-38.31534],[144.19529,-38.31718],[144.1982,-38.31753],[144.19705,-38.32351],[144.188,-38.32246],[144.18648,-38.33046],[144.1857,-38.33037],[144.18549,-38.33145],[144.18629,-38.33155],[144.18494,-38.33863]]]]}},{"type":"Feature","properties":{"name":"Bells Beach","made_of":["Bells Beach"],"osm":["relation/2732097"]},"geometry":{"type":"MultiPolygon","coordinates":[[[[144.22924,-38.39891],[144.23544,-38.3979],[144.23775,-38.3984],[144.239,-38.39743],[144.24606,-38.39656],[144.25096,-38.3969],[144.25215,-38.39587],[144.2538,-38.39575],[144.25413,-38.39506],[144.25325,-38.39412],[144.25382,-38.39283],[144.2523,-38.39151],[144.25177,-38.38904],[144.25207,-38.38726],[144.25342,-38.38524],[144.2587,-38.38176],[144.26604,-38.38047],[144.2691,-38.37852],[144.27158,-38.37511],[144.27885,-38.37259],[144.28398,-38.36864],[144.2854,-38.36864],[144.28949,-38.36131],[144.29245,-38.35955],[144.25624,-38.35509],[144.25348,-38.36952],[144.24421,-38.36839],[144.24368,-38.37129],[144.2428,-38.37268],[144.24,-38.37337],[144.23425,-38.37295],[144.22924,-38.39891]]]]}},{"type":"Feature","properties":{"name":"Birregurra","made_of":["Birregurra"],"osm":["relation/3132313"]},"geometry":{"type":"MultiPolygon","coordinates":[[[[143.73228,-38.36186],[143.7606,-38.36516],[143.75808,-38.37953],[143.73589,-38.4081],[143.73885,-38.41115],[143.73873,-38.41223],[143.73754,-38.41338],[143.73751,-38.4142],[143.73862,-38.41558],[143.74163,-38.41601],[143.7445,-38.41498],[143.74455,-38.4145],[143.74676,-38.41446],[143.74646,-38.41383],[143.74741,-38.41366],[143.74739,-38.41308],[143.74929,-38.41243],[143.75362,-38.4094],[143.75374,-38.40873],[143.7521,-38.40905],[143.7521,-38.40862],[143.75471,-38.40721],[143.75529,-38.40757],[143.75542,-38.4068],[143.75672,-38.40638],[143.7569,-38.40521],[143.7562,-38.40472],[143.75781,-38.40344],[143.75677,-38.40311],[143.75794,-38.40185],[143.75882,-38.40182],[143.75911,-38.40122],[143.75854,-38.40103],[143.75958,-38.39997],[143.75884,-38.3997],[143.75959,-38.39865],[143.75931,-38.39755],[143.76006,-38.39745],[143.75946,-38.39699],[143.76018,-38.39673],[143.75969,-38.39619],[143.7606,-38.39455],[143.76002,-38.39406],[143.76151,-38.39402],[143.76201,-38.39326],[143.76175,-38.39275],[143.76236,-38.39289],[143.76199,-38.39194],[143.7633,-38.39149],[143.76297,-38.39026],[143.76374,-38.38979],[143.7638,-38.38908],[143.76469,-38.38967],[143.76522,-38.38828],[143.76576,-38.38833],[143.76567,-38.3891],[143.76653,-38.38977],[143.766,-38.39032],[143.76688,-38.39075],[143.76765,-38.3899],[143.76819,-38.39018],[143.76789,-38.38956],[143.76891,-38.38891],[143.83788,-38.39657],[143.84039,-38.38376],[143.82146,-38.38452],[143.82235,-38.37991],[143.8042,-38.37779],[143.81031,-38.34437],[143.81118,-38.34541],[143.8123,-38.34883],[143.81468,-38.35107],[143.81876,-38.35035],[143.90135,-38.35971],[143.90268,-38.35091],[143.90705,-38.34587],[143.91637,-38.33965],[143.92393,-38.33672],[143.92684,-38.32065],[143.93441,-38.31752],[143.93738,-38.30218],[143.93889,-38.30193],[143.93746,-38.29929],[143.93741,-38.30029],[143.93474,-38.30097],[143.93575,-38.30143],[143.93458,-38.30232],[143.93285,-38.30163],[143.93262,-38.30245],[143.93151,-38.30099],[143.92697,-38.2996],[143.92532,-38.29975],[143.92463,-38.30033],[143.92238,-38.3002],[143.92253,-38.30107],[143.92042,-38.30244],[143.92006,-38.30356],[143.91765,-38.30457],[143.91533,-38.30727],[143.91211,-38.30868],[143.91237,-38.30971],[143.91094,-38.30958],[143.90769,-38.31057],[143.90652,-38.30957],[143.90513,-38.30938],[143.90309,-38.3109],[143.9029,-38.31202],[143.90198,-38.31284],[143.89803,-38.31423],[143.89446,-38.31388],[143.89014,-38.31129],[143.89016,-38.31064],[143.88799,-38.30933],[143.88721,-38.30978],[143.88604,-38.30891],[143.8815,-38.30874],[143.86844,-38.30521],[143.86122,-38.30534],[143.85808,-38.30361],[143.85615,-38.30351],[143.84886,-38.2991],[143.85168,-38.28445],[143.84451,-38.28772],[143.84097,-38.28785],[143.82884,-38.29278],[143.82276,-38.29325],[143.82568,-38.27779],[143.82115,-38.27726],[143.81958,-38.28546],[143.81494,-38.28493],[143.81713,-38.27321],[143.79867,-38.271],[143.796,-38.28526],[143.79154,-38.28476],[143.79087,-38.28833],[143.77142,-38.28604],[143.7712,-38.28522],[143.7697,-38.29329],[143.77039,-38.29329],[143.77083,-38.29396],[143.77019,-38.29567],[143.7725,-38.30007],[143.77126,-38.30155],[143.76738,-38.30119],[143.76108,-38.30745],[143.75717,-38.32858],[143.74827,-38.32766],[143.74729,-38.33284],[143.73844,-38.33013],[143.73228,-38.36186]]]]}},{"type":"Feature","properties":{"name":"Breamlea","made_of":["Breamlea"],"osm":["relation/2463230"]},"geometry":{"type":"MultiPolygon","coordinates":[[[[144.37157,-38.29306],[144.37368,-38.30011],[144.37466,-38.30031],[144.37479,-38.30111],[144.37667,-38.30304],[144.37669,-38.30244],[144.3776,-38.30243],[144.3829,-38.29972],[144.39139,-38.29747],[144.3982,-38.29685],[144.40015,-38.29473],[144.40282,-38.29462],[144.40393,-38.29297],[144.40577,-38.29182],[144.40059,-38.28537],[144.39351,-38.28863],[144.37494,-38.29213],[144.37178,-38.29186],[144.37157,-38.29306]]]]}},{"type":"Feature","properties":{"name":"Cape Otway","made_of":["Cape Otway"],"osm":["relation/11691481"]},"geometry":{"type":"MultiPolygon","coordinates":[[[[143.49333,-38.81962],[143.49733,-38.82263],[143.49909,-38.82483],[143.49974,-38.82877],[143.50357,-38.83051],[143.50579,-38.83405],[143.50718,-38.83891],[143.5064,-38.84805],[143.51123,-38.84824],[143.51101,-38.8492],[143.51023,-38.84923],[143.5102,-38.85081],[143.50682,-38.85039],[143.50463,-38.85085],[143.50438,-38.85234],[143.50539,-38.85288],[143.50464,-38.85353],[143.50574,-38.85364],[143.50582,-38.85469],[143.50669,-38.85532],[143.51013,-38.85654],[143.51134,-38.85769],[143.51868,-38.85514],[143.52205,-38.85605],[143.5253,-38.8556],[143.5275,-38.85609],[143.5346,-38.85437],[143.53651,-38.85503],[143.53734,-38.85407],[143.53959,-38.85408],[143.54057,-38.85493],[143.54361,-38.85344],[143.54985,-38.85385],[143.55406,-38.85569],[143.55565,-38.85494],[143.55842,-38.85086],[143.56008,-38.85019],[143.56152,-38.8484],[143.56183,-38.84718],[143.56065,-38.8455],[143.56147,-38.8451],[143.56226,-38.84599],[143.56489,-38.84521],[143.56886,-38.84261],[143.57205,-38.84151],[143.57994,-38.83566],[143.58453,-38.82985],[143.58314,-38.82655],[143.58423,-38.82541],[143.58565,-38.82182],[143.58714,-38.82041],[143.58881,-38.82021],[143.58938,-38.81843],[143.59197,-38.8171],[143.59258,-38.81614],[143.59525,-38.81541],[143.59752,-38.81286],[143.59712,-38.81129],[143.60373,-38.8065],[143.60978,-38.8004],[143.61107,-38.80008],[143.61603,-38.79551],[143.61835,-38.79444],[143.61553,-38.79081],[143.61581,-38.78893],[143.61455,-38.78672],[143.61467,-38.78411],[143.61531,-38.78303],[143.61415,-38.78056],[143.61192,-38.77868],[143.60844,-38.77876],[143.60559,-38.77739],[143.60407,-38.77497],[143.60367,-38.77245],[143.60295,-38.77238],[143.60438,-38.76225],[143.6032,-38.76101],[143.60046,-38.76052],[143.59207,-38.75556],[143.58857,-38.75228],[143.58721,-38.7517],[143.58633,-38.75018],[143.5877,-38.74661],[143.58865,-38.74739],[143.59991,-38.74292],[143.60016,-38.74188],[143.59851,-38.74137],[143.59825,-38.73987],[143.59687,-38.73885],[143.598,-38.73689],[143.59697,-38.73597],[143.59526,-38.7355],[143.59695,-38.7333],[143.59504,-38.73135],[143.59233,-38.73085],[143.59152,-38.72982],[143.59312,-38.72512],[143.5924,-38.72303],[143.59326,-38.72141],[143.59565,-38.72085],[143.59337,-38.71858],[143.59556,-38.71648],[143.59546,-38.71559],[143.59665,-38.71534],[143.59749,-38.71305],[143.5975,-38.71206],[143.59641,-38.71071],[143.59727,-38.70958],[143.59659,-38.70846],[143.59677,-38.70669],[143.59511,-38.70572],[143.59495,-38.7049],[143.5916,-38.70279],[143.5903,-38.70102],[143.58822,-38.71249],[143.58336,-38.71193],[143.58205,-38.71937],[143.58122,-38.71927],[143.58219,-38.72283],[143.58122,-38.7241],[143.58133,-38.72771],[143.58221,-38.73109],[143.5801,-38.73143],[143.58046,-38.73205],[143.57979,-38.73306],[143.58004,-38.73469],[143.57943,-38.73564],[143.57412,-38.73752],[143.5744,-38.73832],[143.57343,-38.73877],[143.57041,-38.73881],[143.5683,-38.73945],[143.56666,-38.74069],[143.56489,-38.74078],[143.56377,-38.74143],[143.56414,-38.7433],[143.56315,-38.74613],[143.56044,-38.74688],[143.56022,-38.74758],[143.5578,-38.74887],[143.55361,-38.74931],[143.55301,-38.74996],[143.55294,-38.7519],[143.55373,-38.75307],[143.55368,-38.75598],[143.5525,-38.75759],[143.55255,-38.75978],[143.55106,-38.76091],[143.55039,-38.76236],[143.54909,-38.7628],[143.54656,-38.76221],[143.54574,-38.7632],[143.5485,-38.7655],[143.54741,-38.76752],[143.54704,-38.77012],[143.54524,-38.77155],[143.54243,-38.77195],[143.53941,-38.7746],[143.53842,-38.77656],[143.53894,-38.7775],[143.53853,-38.77873],[143.53899,-38.78061],[143.53623,-38.78196],[143.53588,-38.78275],[143.53646,-38.78464],[143.53569,-38.78599],[143.5329,-38.78534],[143.52701,-38.78063],[143.52537,-38.78046],[143.52256,-38.7825],[143.51966,-38.78295],[143.51588,-38.78123],[143.51196,-38.78242],[143.51139,-38.78174],[143.51044,-38.78167],[143.51164,-38.78633],[143.51049,-38.78787],[143.5127,-38.79],[143.51309,-38.79189],[143.51521,-38.79507],[143.50899,-38.79585],[143.50886,-38.79671],[143.51014,-38.79673],[143.5106,-38.79919],[143.51207,-38.80184],[143.51414,-38.80367],[143.51276,-38.80354],[143.50903,-38.81594],[143.51023,-38.81647],[143.51616,-38.81644],[143.50855,-38.82734],[143.50637,-38.82588],[143.50528,-38.82348],[143.50329,-38.82198],[143.5032,-38.82069],[143.49971,-38.81988],[143.49724,-38.81829],[143.49428,-38.81873],[143.49333,-38.81962]]]]}},{"type":"Feature","properties":{"name":"Colac","made_of":["Colac"],"osm":["relation/3145220"]},"geometry":{"type":"MultiPolygon","coordinates":[[[[143.55233,-38.31019],[143.55372,-38.31177],[143.55672,-38.31313],[143.55721,-38.31444],[143.55961,-38.31597],[143.55411,-38.31849],[143.55364,-38.32055],[143.55532,-38.3237],[143.55871,-38.32657],[143.5618,-38.32737],[143.55934,-38.34136],[143.56864,-38.34247],[143.56701,-38.35124],[143.60319,-38.35543],[143.60848,-38.32582],[143.61024,-38.32511],[143.61775,-38.3189],[143.62229,-38.31102],[143.62437,-38.30413],[143.62538,-38.29839],[143.62557,-38.29416],[143.62495,-38.28803],[143.6201,-38.27674],[143.61572,-38.27186],[143.6084,-38.26786],[143.60813,-38.2669],[143.60396,-38.26381],[143.60164,-38.26673],[143.60091,-38.26678],[143.59951,-38.26416],[143.59842,-38.26423],[143.59832,-38.26631],[143.59665,-38.26741],[143.59644,-38.26919],[143.5957,-38.27009],[143.59677,-38.27406],[143.5957,-38.27468],[143.59397,-38.27372],[143.59399,-38.27446],[143.59209,-38.27504],[143.59156,-38.27577],[143.59139,-38.27682],[143.59201,-38.27811],[143.59151,-38.27878],[143.59158,-38.28016],[143.59069,-38.2812],[143.59083,-38.28224],[143.59123,-38.2829],[143.59327,-38.28322],[143.59401,-38.2855],[143.59289,-38.28665],[143.59298,-38.2878],[143.59207,-38.28836],[143.59098,-38.28798],[143.59023,-38.28885],[143.58855,-38.28855],[143.58705,-38.28934],[143.58641,-38.29036],[143.58676,-38.29127],[143.58858,-38.29249],[143.58687,-38.29236],[143.58596,-38.29174],[143.58482,-38.29225],[143.58298,-38.29448],[143.58338,-38.29498],[143.58305,-38.29633],[143.58259,-38.29518],[143.58126,-38.29511],[143.58263,-38.29408],[143.58321,-38.29225],[143.58387,-38.29189],[143.58252,-38.28953],[143.58147,-38.29039],[143.58148,-38.29163],[143.57819,-38.2936],[143.57706,-38.29487],[143.57629,-38.2943],[143.57484,-38.29537],[143.57491,-38.29617],[143.5737,-38.29666],[143.57402,-38.29719],[143.57153,-38.29894],[143.57114,-38.30106],[143.56952,-38.30136],[143.56994,-38.30213],[143.56942,-38.30273],[143.56885,-38.30265],[143.56687,-38.30424],[143.56233,-38.30514],[143.55882,-38.3065],[143.55712,-38.30559],[143.55568,-38.30565],[143.55253,-38.3085],[143.55233,-38.31019]]]]}},{"type":"Feature","properties":{"name":"Connewarre","made_of":["Connewarre"],"osm":["relation/2463231"]},"geometry":{"type":"MultiPolygon","coordinates":[[[[144.35252,-38.28957],[144.37494,-38.29213],[144.39351,-38.28863],[144.40059,-38.28537],[144.40577,-38.29182],[144.40921,-38.29081],[144.41332,-38.29055],[144.41834,-38.28658],[144.42377,-38.28449],[144.42611,-38.28458],[144.42822,-38.28175],[144.4341,-38.28118],[144.43908,-38.28155],[144.45676,-38.28497],[144.46532,-38.28579],[144.469,-38.28686],[144.46925,-38.28435],[144.47393,-38.28237],[144.47576,-38.27817],[144.47529,-38.2742],[144.47799,-38.27128],[144.47743,-38.27024],[144.47812,-38.2686],[144.47723,-38.26665],[144.4786,-38.26594],[144.47911,-38.26258],[144.4799,-38.26136],[144.47923,-38.2595],[144.48365,-38.25677],[144.48057,-38.25425],[144.48345,-38.24662],[144.48273,-38.24529],[144.48021,-38.24456],[144.47441,-38.24332],[144.47158,-38.24367],[144.47072,-38.2432],[144.47024,-38.24072],[144.46951,-38.24032],[144.46801,-38.24068],[144.46667,-38.2424],[144.46411,-38.24224],[144.46298,-38.24083],[144.46381,-38.23996],[144.46402,-38.2407],[144.46446,-38.24043],[144.46485,-38.23803],[144.46636,-38.23796],[144.4662,-38.23501],[144.46683,-38.23338],[144.46565,-38.23192],[144.46269,-38.233],[144.4641,-38.23116],[144.46333,-38.23097],[144.46305,-38.23018],[144.46399,-38.22867],[144.4628,-38.22842],[144.46243,-38.23057],[144.46138,-38.22894],[144.46481,-38.22501],[144.47325,-38.22301],[144.47726,-38.22331],[144.48033,-38.22271],[144.48129,-38.22172],[144.48563,-38.22086],[144.48702,-38.21966],[144.48772,-38.2176],[144.48646,-38.21677],[144.48393,-38.21658],[144.47817,-38.2134],[144.47213,-38.21111],[144.46603,-38.2097],[144.45795,-38.20984],[144.45663,-38.21026],[144.45532,-38.2116],[144.45326,-38.21518],[144.45239,-38.21899],[144.45134,-38.22069],[144.44892,-38.22277],[144.4461,-38.22822],[144.44546,-38.22584],[144.44422,-38.22456],[144.44156,-38.22387],[144.43735,-38.22439],[144.43408,-38.22732],[144.43402,-38.23078],[144.43115,-38.23117],[144.42755,-38.23464],[144.42565,-38.23437],[144.42413,-38.23302],[144.42404,-38.23163],[144.42348,-38.23121],[144.42299,-38.23137],[144.42291,-38.23285],[144.4221,-38.23186],[144.42365,-38.22828],[144.42357,-38.22155],[144.42107,-38.21948],[144.41888,-38.2202],[144.4013,-38.23233],[144.39787,-38.23112],[144.39335,-38.23424],[144.39162,-38.23429],[144.38826,-38.25171],[144.39083,-38.25494],[144.3922,-38.25547],[144.35995,-38.25164],[144.35252,-38.28957]]]]}},{"type":"Feature","properties":{"name":"Curlewis","made_of":["Curlewis"],"osm":["relation/2455519"]},"geometry":{"type":"MultiPolygon","coordinates":[[[[144.48549,-38.17755],[144.50318,-38.17967],[144.50277,-38.18168],[144.50325,-38.18192],[144.50126,-38.19239],[144.51053,-38.19353],[144.51018,-38.19533],[144.53791,-38.19873],[144.53763,-38.20019],[144.54293,-38.20081],[144.54322,-38.1993],[144.54695,-38.19974],[144.54845,-38.19265],[144.55169,-38.18902],[144.55187,-38.18813],[144.55072,-38.18567],[144.54965,-38.18516],[144.55007,-38.18499],[144.55311,-38.16921],[144.5514,-38.16792],[144.55177,-38.16628],[144.55118,-38.16487],[144.55154,-38.16385],[144.55099,-38.16271],[144.55119,-38.16078],[144.54908,-38.15599],[144.54681,-38.15691],[144.5429,-38.15657],[144.53625,-38.15894],[144.53606,-38.15817],[144.5317,-38.15875],[144.5278,-38.16034],[144.5198,-38.15979],[144.51714,-38.1607],[144.50715,-38.16212],[144.4983,-38.16087],[144.48806,-38.16386],[144.48549,-38.17755]]]]}},{"type":"Feature","properties":{"name":"Deans Marsh","made_of":["Deans Marsh"],"osm":["relation/2732597"]},"geometry":{"type":"MultiPolygon","coordinates":[[[[143.85497,-38.40325],[143.8563,-38.40611],[143.85817,-38.40823],[143.85854,-38.40891],[143.85819,-38.4095],[143.8593,-38.41097],[143.86138,-38.41181],[143.86484,-38.41563],[143.87736,-38.41684],[143.87829,-38.41877],[143.87823,-38.42039],[143.87946,-38.42173],[143.87992,-38.42345],[143.89377,-38.42498],[143.89285,-38.42715],[143.89078,-38.4294],[143.89032,-38.43222],[143.89177,-38.43379],[143.89738,-38.43596],[143.89944,-38.43849],[143.90321,-38.43944],[143.90453,-38.44033],[143.90614,-38.4429],[143.90593,-38.44574],[143.90931,-38.4505],[143.91352,-38.45276],[143.91535,-38.45315],[143.91909,-38.4556],[143.92306,-38.456],[143.92578,-38.45726],[143.93473,-38.45704],[143.93695,-38.45834],[143.94356,-38.42527],[143.94082,-38.42497],[143.94156,-38.41979],[143.94376,-38.41806],[143.94283,-38.41836],[143.94154,-38.41462],[143.94008,-38.41373],[143.9441,-38.414],[143.94261,-38.40729],[143.94236,-38.40798],[143.94005,-38.40772],[143.94031,-38.40633],[143.93349,-38.40554],[143.93785,-38.38119],[143.93098,-38.38038],[143.93316,-38.36857],[143.92955,-38.36753],[143.92475,-38.36884],[143.91946,-38.36785],[143.91446,-38.3688],[143.9069,-38.3683],[143.90318,-38.36543],[143.90112,-38.36129],[143.90135,-38.35971],[143.86431,-38.35532],[143.85497,-38.40325]]]]}},{"type":"Feature","properties":{"name":"Drysdale","made_of":["Drysdale"],"osm":["relation/2455511"]},"geometry":{"type":"MultiPolygon","coordinates":[[[[144.54695,-38.19974],[144.55626,-38.20087],[144.55591,-38.2027],[144.56481,-38.20371],[144.56516,-38.20188],[144.57436,-38.2029],[144.57554,-38.19784],[144.5844,-38.19899],[144.58485,-38.19677],[144.60835,-38.19957],[144.61384,-38.19289],[144.6409,-38.19633],[144.6492,-38.15261],[144.59682,-38.1465],[144.59404,-38.14938],[144.59164,-38.14682],[144.58871,-38.14984],[144.58397,-38.15253],[144.58232,-38.15967],[144.57361,-38.15865],[144.57237,-38.16507],[144.56797,-38.16454],[144.56749,-38.16706],[144.56604,-38.16689],[144.56619,-38.16548],[144.56313,-38.16512],[144.56298,-38.16593],[144.56,-38.16559],[144.55954,-38.16801],[144.55348,-38.16731],[144.55007,-38.18499],[144.54965,-38.18516],[144.55072,-38.18567],[144.55187,-38.18813],[144.55169,-38.18902],[144.54845,-38.19265],[144.54695,-38.19974]]]]}},{"type":"Feature","properties":{"name":"Eastern View","made_of":["Eastern View"],"osm":["relation/11691438"]},"geometry":{"type":"MultiPolygon","coordinates":[[[[144.01791,-38.47247],[144.02648,-38.47337],[144.02577,-38.4776],[144.02284,-38.4772],[144.02342,-38.48113],[144.02118,-38.48205],[144.02127,-38.48332],[144.02291,-38.48438],[144.02692,-38.4845],[144.02869,-38.48539],[144.02985,-38.48692],[144.03054,-38.48651],[144.03094,-38.48444],[144.03255,-38.48422],[144.03327,-38.48503],[144.03318,-38.48228],[144.03424,-38.48149],[144.03329,-38.47937],[144.03433,-38.47746],[144.0365,-38.47577],[144.04188,-38.47332],[144.05512,-38.47076],[144.05811,-38.45374],[144.06221,-38.4542],[144.06406,-38.44397],[144.0623,-38.44376],[144.06278,-38.44107],[144.06405,-38.44122],[144.06826,-38.4198],[144.02613,-38.43004],[144.01791,-38.47247]]]]}},{"type":"Feature","properties":{"name":"Fairhaven","made_of":["Fairhaven"],"osm":["relation/2732098"]},"geometry":{"type":"MultiPolygon","coordinates":[[[[144.06972,-38.46646],[144.0698,-38.46798],[144.0743,-38.46699],[144.07441,-38.46893],[144.09425,-38.46858],[144.09454,-38.46441],[144.09543,-38.46412],[144.09785,-38.46485],[144.09805,-38.46341],[144.10169,-38.46095],[144.09922,-38.46074],[144.0994,-38.45845],[144.0969,-38.45861],[144.09614,-38.45776],[144.09599,-38.45704],[144.09693,-38.45582],[144.09565,-38.45372],[144.09646,-38.45199],[144.09395,-38.45087],[144.09269,-38.44839],[144.09279,-38.4477],[144.0965,-38.44816],[144.09421,-38.44499],[144.07918,-38.44309],[144.0795,-38.44337],[144.07862,-38.44809],[144.07638,-38.45041],[144.07357,-38.45692],[144.07534,-38.45711],[144.07023,-38.46105],[144.07106,-38.46197],[144.074,-38.46191],[144.07415,-38.46409],[144.07266,-38.46414],[144.06972,-38.46646]]]]}},{"type":"Feature","properties":{"name":"Forrest","made_of":["Forrest"],"osm":["relation/2732598"]},"geometry":{"type":"MultiPolygon","coordinates":[[[[143.64293,-38.48736],[143.64854,-38.49874],[143.65714,-38.5066],[143.66166,-38.50714],[143.66092,-38.50959],[143.66157,-38.51235],[143.66239,-38.51318],[143.66384,-38.5136],[143.6671,-38.51021],[143.67222,-38.51061],[143.67639,-38.51227],[143.68017,-38.51815],[143.67632,-38.52258],[143.6788,-38.52575],[143.67919,-38.52821],[143.67883,-38.53106],[143.67783,-38.53224],[143.67546,-38.53299],[143.67245,-38.5365],[143.66551,-38.53855],[143.66435,-38.54007],[143.66078,-38.54169],[143.66685,-38.54843],[143.68274,-38.55018],[143.68384,-38.54433],[143.70411,-38.54628],[143.70488,-38.54387],[143.70866,-38.54426],[143.71264,-38.54342],[143.71812,-38.53772],[143.72275,-38.53446],[143.72626,-38.53545],[143.72739,-38.53925],[143.7299,-38.54177],[143.7347,-38.5403],[143.73604,-38.53486],[143.736,-38.53067],[143.73516,-38.52706],[143.73571,-38.5241],[143.7311,-38.52358],[143.73202,-38.52195],[143.73103,-38.52013],[143.73201,-38.51955],[143.73064,-38.51816],[143.73142,-38.51658],[143.73053,-38.51474],[143.73321,-38.5129],[143.73293,-38.51179],[143.73342,-38.511],[143.732,-38.50976],[143.73236,-38.50844],[143.73165,-38.50706],[143.73287,-38.50574],[143.73286,-38.50276],[143.73542,-38.49807],[143.7347,-38.49676],[143.73531,-38.49668],[143.73554,-38.49567],[143.73623,-38.49588],[143.73639,-38.49426],[143.73878,-38.49301],[143.73865,-38.49264],[143.73922,-38.49274],[143.73923,-38.49205],[143.73989,-38.49228],[143.74015,-38.49104],[143.74276,-38.48826],[143.74385,-38.48819],[143.7439,-38.48739],[143.74315,-38.4871],[143.74397,-38.48666],[143.74433,-38.48552],[143.74339,-38.48333],[143.74384,-38.48233],[143.74226,-38.4811],[143.74249,-38.48058],[143.74136,-38.47919],[143.69623,-38.47395],[143.69461,-38.48263],[143.6858,-38.48161],[143.6862,-38.48314],[143.68539,-38.48362],[143.68297,-38.48829],[143.68333,-38.48981],[143.68296,-38.49089],[143.68533,-38.49233],[143.64293,-38.48736]]]]}},{"type":"Feature","properties":{"name":"Freshwater Creek","made_of":["Freshwater Creek"],"osm":["relation/2723382"]},"geometry":{"type":"MultiPolygon","coordinates":[[[[144.20019,-38.25933],[144.20193,-38.25966],[144.20286,-38.2589],[144.20585,-38.2597],[144.20637,-38.25721],[144.20971,-38.25505],[144.21053,-38.25682],[144.21028,-38.2597],[144.21231,-38.26071],[144.21295,-38.26269],[144.21415,-38.26292],[144.21675,-38.26214],[144.21832,-38.26266],[144.21111,-38.30234],[144.28342,-38.31081],[144.29107,-38.27085],[144.29346,-38.27062],[144.29276,-38.26939],[144.29343,-38.26827],[144.29287,-38.26746],[144.29319,-38.26707],[144.29176,-38.26722],[144.29611,-38.24438],[144.24133,-38.23778],[144.24277,-38.22958],[144.21788,-38.2352],[144.20483,-38.23343],[144.20019,-38.25933]]]]}},{"type":"Feature","properties":{"name":"Geelong","made_of":["Bell Park","Belmont","Breakwater","Ceres","Corio","Fyansford","Geelong","Geelong West","Grovedale","Hamlyn Heights","Highton","Norlane","Newcomb","Newtown","South Geelong","Waurn Ponds"],"osm":["relation/2456207","relation/2460745","relation/2456209","relation/2460746","relation/2455525","relation/2460747","relation/2456176","relation/2456175","relation/2460748","relation/2456210","relation/2460750","relation/2456177","relation/2456182","relation/2456248","relation/2456184","relation/2723387"]},"geometry":{"type":"MultiPolygon","coordinates":[[[[144.3334,-38.1197],[144.33585,-38.11754],[144.33924,-38.11591],[144.34235,-38.11628],[144.34623,-38.09631],[144.34798,-38.09814],[144.34967,-38.0978],[144.35029,-38.09823],[144.35009,-38.09977],[144.34813,-38.10131],[144.34956,-38.10075],[144.35105,-38.10088],[144.35325,-38.10456],[144.35865,-38.10593],[144.36043,-38.10415],[144.36365,-38.10377],[144.3643,-38.10185],[144.36603,-38.10014],[144.36465,-38.09997],[144.36626,-38.09522],[144.37192,-38.08578],[144.38251,-38.08705],[144.3828,-38.08561],[144.3845,-38.08529],[144.38298,-38.084],[144.38533,-38.08229],[144.3861,-38.07978],[144.38875,-38.07796],[144.38863,-38.07734],[144.38955,-38.07658],[144.39327,-38.0749],[144.40749,-38.07122],[144.40578,-38.07026],[144.40546,-38.06794],[144.4106,-38.0642],[144.41269,-38.06114],[144.41421,-38.0603],[144.41621,-38.06094],[144.41737,-38.0599],[144.41711,-38.05638],[144.41449,-38.05461],[144.35792,-38.04801],[144.35839,-38.06],[144.35247,-38.05918],[144.34862,-38.05926],[144.34389,-38.06054],[144.34095,-38.06221],[144.33033,-38.11593],[144.32157,-38.10625],[144.31646,-38.11015],[144.31605,-38.11371],[144.31323,-38.11521],[144.31124,-38.11558],[144.31064,-38.11657],[144.30949,-38.11589],[144.30916,-38.11374],[144.30618,-38.11453],[144.30456,-38.11401],[144.30465,-38.11345],[144.30746,-38.11148],[144.30768,-38.11064],[144.30693,-38.11005],[144.30462,-38.11099],[144.28202,-38.10898],[144.28137,-38.11249],[144.26485,-38.1106],[144.26113,-38.1302],[144.26523,-38.13131],[144.26326,-38.14078],[144.26198,-38.14149],[144.26065,-38.14875],[144.26191,-38.15137],[144.26021,-38.15335],[144.25705,-38.15514],[144.25453,-38.15809],[144.25267,-38.17067],[144.25047,-38.17361],[144.25259,-38.17575],[144.24279,-38.22946],[144.30272,-38.21643],[144.32021,-38.21384],[144.32913,-38.21392],[144.33575,-38.21159],[144.34603,-38.20976],[144.34951,-38.20753],[144.35112,-38.2047],[144.35293,-38.19481],[144.34814,-38.19427],[144.34852,-38.19237],[144.34916,-38.19275],[144.34938,-38.19136],[144.35016,-38.19078],[144.34939,-38.19027],[144.34976,-38.18941],[144.35074,-38.18955],[144.3515,-38.18876],[144.35248,-38.18927],[144.35248,-38.18797],[144.35138,-38.18727],[144.35334,-38.18697],[144.35409,-38.18613],[144.35679,-38.18582],[144.35826,-38.18448],[144.36021,-38.18608],[144.36275,-38.18548],[144.3643,-38.18597],[144.36566,-38.1903],[144.36864,-38.19306],[144.37344,-38.19378],[144.37627,-38.19272],[144.37997,-38.19303],[144.38234,-38.1803],[144.37599,-38.16894],[144.37215,-38.16776],[144.36722,-38.16401],[144.37488,-38.14728],[144.37461,-38.14648],[144.3701,-38.14661],[144.36673,-38.14497],[144.36587,-38.14535],[144.36511,-38.14502],[144.36541,-38.14424],[144.36501,-38.14448],[144.36299,-38.14332],[144.36275,-38.14383],[144.36204,-38.14362],[144.36222,-38.14316],[144.35772,-38.1401],[144.35605,-38.13799],[144.35561,-38.13568],[144.35616,-38.13275],[144.343,-38.13126],[144.3334,-38.1197]],[[144.28858,-38.1838],[144.29071,-38.17174],[144.29846,-38.17172],[144.30096,-38.17096],[144.30555,-38.16823],[144.30974,-38.1692],[144.30678,-38.18597],[144.28858,-38.1838]],[[144.31826,-38.13933],[144.31859,-38.13744],[144.31738,-38.13729],[144.31634,-38.13361],[144.3173,-38.128],[144.33831,-38.13066],[144.33547,-38.14538],[144.32907,-38.14461],[144.32979,-38.14098],[144.31826,-38.13933]]],[[[144.38409,-38.17092],[144.40223,-38.1749],[144.40535,-38.15766],[144.40671,-38.15634],[144.40677,-38.15485],[144.40253,-38.15532],[144.40041,-38.15313],[144.39595,-38.15157],[144.39519,-38.15039],[144.38675,-38.15677],[144.38409,-38.17092]]]]}},{"type":"Feature","properties":{"name":"Indented Head","made_of":["Indented Head"],"osm":["relation/2439866"]},"geometry":{"type":"MultiPolygon","coordinates":[[[[144.68835,-38.14279],[144.70688,-38.14508],[144.70615,-38.14886],[144.7173,-38.15026],[144.7176,-38.14915],[144.72031,-38.14666],[144.71464,-38.14265],[144.71366,-38.14097],[144.71373,-38.14006],[144.71175,-38.13837],[144.71165,-38.13671],[144.70928,-38.13445],[144.70648,-38.12993],[144.70399,-38.12972],[144.69982,-38.12786],[144.69675,-38.12517],[144.69273,-38.12046],[144.68835,-38.14279]]]]}},{"type":"Feature","properties":{"name":"Inverleigh","made_of":["Inverleigh"],"osm":["relation/3124409"]},"geometry":{"type":"MultiPolygon","coordinates":[[[[143.89964,-38.14446],[143.90267,-38.14595],[143.90107,-38.15052],[143.9054,-38.15499],[143.90655,-38.15512],[143.90826,-38.15652],[143.91137,-38.1541],[143.91211,-38.15471],[143.91156,-38.15546],[143.9118,-38.15766],[143.90977,-38.15942],[143.90888,-38.16273],[143.91072,-38.16273],[143.91361,-38.16067],[143.91849,-38.16204],[143.91894,-38.15929],[144.00246,-38.16918],[144.00313,-38.16554],[144.08505,-38.17501],[144.09601,-38.11684],[144.09894,-38.11717],[144.09873,-38.11537],[144.10154,-38.10867],[144.10676,-38.10214],[144.10602,-38.10048],[144.10679,-38.0984],[144.10508,-38.09727],[144.10405,-38.09575],[144.10289,-38.09564],[144.10408,-38.09343],[144.10402,-38.09072],[144.10509,-38.09049],[144.10571,-38.0893],[144.10352,-38.08772],[144.10419,-38.08663],[144.1024,-38.0869],[144.09978,-38.08463],[144.09685,-38.08448],[144.09525,-38.08218],[144.09519,-38.08121],[144.09617,-38.08017],[144.09401,-38.07877],[144.09598,-38.07689],[144.09625,-38.07589],[144.0957,-38.07467],[144.09418,-38.07485],[144.09609,-38.06479],[144.09529,-38.06408],[144.09378,-38.06548],[144.08699,-38.06376],[144.08793,-38.05876],[144.08059,-38.05952],[144.07834,-38.05765],[144.06298,-38.05932],[144.05458,-38.06174],[144.04598,-38.05156],[144.01564,-38.04823],[144.01714,-38.05268],[144.00571,-38.0547],[144.00112,-38.05491],[144.00049,-38.05311],[144.00181,-38.05264],[144.00113,-38.0519],[144.00203,-38.05113],[144.00051,-38.05094],[143.9991,-38.0518],[143.99763,-38.04936],[143.99653,-38.04883],[143.99645,-38.04776],[143.99499,-38.04777],[143.99574,-38.0471],[143.99492,-38.04671],[143.99371,-38.04689],[143.99401,-38.04799],[143.99298,-38.04848],[143.99171,-38.04826],[143.99086,-38.04872],[143.98973,-38.04807],[143.9891,-38.04875],[143.98808,-38.04842],[143.98787,-38.04911],[143.98459,-38.04677],[143.9828,-38.04682],[143.98281,-38.04626],[143.97729,-38.04574],[143.97741,-38.04704],[143.97887,-38.0484],[143.91897,-38.04188],[143.89964,-38.14446]]]]}},{"type":"Feature","properties":{"name":"Jan Juc","made_of":["Jan Juc"],"osm":["relation/2723383"]},"geometry":{"type":"MultiPolygon","coordinates":[[[[144.27916,-38.35785],[144.2938,-38.3596],[144.29804,-38.35612],[144.29849,-38.35296],[144.30254,-38.35129],[144.30626,-38.34871],[144.31921,-38.34596],[144.3189,-38.34388],[144.31716,-38.34231],[144.31773,-38.34004],[144.31614,-38.34011],[144.31483,-38.33805],[144.31134,-38.33924],[144.30461,-38.33867],[144.30302,-38.33061],[144.30046,-38.33103],[144.29816,-38.33047],[144.29573,-38.33125],[144.28911,-38.33074],[144.28789,-38.33707],[144.28647,-38.33691],[144.28619,-38.3385],[144.2813,-38.33793],[144.2808,-38.34052],[144.2825,-38.34073],[144.27916,-38.35785]]]]}},{"type":"Feature","properties":{"name":"Kennett River","made_of":["Kennett River"],"osm":["relation/11691453"]},"geometry":{"type":"MultiPolygon","coordinates":[[[[143.74279,-38.62264],[143.74463,-38.62368],[143.74422,-38.62771],[143.74521,-38.62846],[143.74542,-38.62966],[143.74777,-38.63053],[143.75039,-38.63253],[143.75143,-38.63263],[143.75246,-38.62753],[143.75775,-38.62893],[143.75831,-38.62958],[143.76041,-38.62891],[143.76108,-38.63078],[143.76212,-38.63187],[143.7652,-38.63456],[143.76718,-38.63465],[143.76819,-38.63617],[143.77134,-38.63849],[143.77385,-38.63865],[143.77694,-38.64118],[143.77932,-38.64118],[143.78224,-38.64292],[143.786,-38.64379],[143.78843,-38.64331],[143.78934,-38.64398],[143.78997,-38.64615],[143.79118,-38.64767],[143.79133,-38.64985],[143.79312,-38.65044],[143.7929,-38.65173],[143.79494,-38.65354],[143.79516,-38.65561],[143.79605,-38.65586],[143.79662,-38.65745],[143.80909,-38.64978],[143.81176,-38.65118],[143.81304,-38.65203],[143.81357,-38.65349],[143.81608,-38.65469],[143.81725,-38.65733],[143.82023,-38.6593],[143.82127,-38.66151],[143.82075,-38.66329],[143.82211,-38.66609],[143.82967,-38.66891],[143.83052,-38.66979],[143.83376,-38.66913],[143.83731,-38.67117],[143.841,-38.67088],[143.84259,-38.6726],[143.84025,-38.67244],[143.84002,-38.67363],[143.84096,-38.67444],[143.84078,-38.6756],[143.83876,-38.67711],[143.83897,-38.67784],[143.83816,-38.67978],[143.84048,-38.68238],[143.84206,-38.67908],[143.84421,-38.67758],[143.84699,-38.67733],[143.85365,-38.67504],[143.85766,-38.67472],[143.86121,-38.67281],[143.86637,-38.6715],[143.86561,-38.67051],[143.86351,-38.66956],[143.86343,-38.66732],[143.86238,-38.66815],[143.86203,-38.66773],[143.86212,-38.66705],[143.86299,-38.66719],[143.86442,-38.66549],[143.86485,-38.66315],[143.86434,-38.66254],[143.86478,-38.66166],[143.8641,-38.66233],[143.86387,-38.66484],[143.86281,-38.66534],[143.86197,-38.66345],[143.85932,-38.66206],[143.86032,-38.66146],[143.86006,-38.66084],[143.85673,-38.66104],[143.84993,-38.65683],[143.84551,-38.65514],[143.84281,-38.65487],[143.84022,-38.65352],[143.83964,-38.6524],[143.85025,-38.65356],[143.85147,-38.64695],[143.83724,-38.64525],[143.83535,-38.6431],[143.82696,-38.64158],[143.82506,-38.63961],[143.82209,-38.63874],[143.82293,-38.63742],[143.82165,-38.63557],[143.81939,-38.63534],[143.81719,-38.63425],[143.81603,-38.63213],[143.81706,-38.63033],[143.81613,-38.62595],[143.81734,-38.62315],[143.81436,-38.62323],[143.81335,-38.62054],[143.8089,-38.61767],[143.80825,-38.61619],[143.80528,-38.6138],[143.80406,-38.61188],[143.80105,-38.61011],[143.79969,-38.60806],[143.79886,-38.60774],[143.79841,-38.60694],[143.79871,-38.60572],[143.79663,-38.60371],[143.79615,-38.60191],[143.79424,-38.60166],[143.79114,-38.60335],[143.7822,-38.60348],[143.78198,-38.60659],[143.7803,-38.60615],[143.77877,-38.6081],[143.77725,-38.60862],[143.77605,-38.6102],[143.77477,-38.61077],[143.77387,-38.61267],[143.76706,-38.61326],[143.76621,-38.61498],[143.76105,-38.61603],[143.76011,-38.61673],[143.75314,-38.61697],[143.75198,-38.61836],[143.74651,-38.61966],[143.74279,-38.62264]]]]}},{"type":"Feature","properties":{"name":"Lara","made_of":["Lara"],"osm":["relation/2455498"]},"geometry":{"type":"MultiPolygon","coordinates":[[[[144.34095,-38.06221],[144.34389,-38.06054],[144.34862,-38.05926],[144.35247,-38.05918],[144.35839,-38.06],[144.35792,-38.04801],[144.41449,-38.05461],[144.41136,-38.05263],[144.40939,-38.05019],[144.40963,-38.04846],[144.41335,-38.04359],[144.41352,-38.04217],[144.41257,-38.03982],[144.42002,-38.0354],[144.48711,-38.00429],[144.4804,-37.99865],[144.47933,-37.99665],[144.48347,-37.99394],[144.4825,-37.99276],[144.48374,-37.99209],[144.48434,-37.98882],[144.45905,-37.98601],[144.46148,-37.97154],[144.3514,-37.95905],[144.34627,-37.98814],[144.35436,-38.02978],[144.34712,-38.02893],[144.34752,-38.03605],[144.34588,-38.03536],[144.3454,-38.03762],[144.34743,-38.03788],[144.34359,-38.04146],[144.34375,-38.04211],[144.34153,-38.04604],[144.344,-38.04633],[144.34095,-38.06221]]]]}},{"type":"Feature","properties":{"name":"Lavers Hill","made_of":["Lavers Hill"],"osm":["relation/11691484"]},"geometry":{"type":"MultiPolygon","coordinates":[[[[143.3201,-38.68831],[143.32068,-38.68912],[143.32289,-38.68982],[143.32366,-38.69285],[143.3255,-38.69418],[143.32493,-38.69812],[143.32787,-38.69984],[143.32802,-38.70125],[143.32874,-38.70206],[143.32802,-38.70375],[143.33103,-38.70562],[143.33102,-38.70692],[143.33012,-38.70824],[143.33078,-38.70859],[143.33089,-38.70962],[143.33202,-38.71109],[143.33409,-38.71093],[143.33807,-38.7119],[143.34014,-38.71087],[143.34204,-38.70891],[143.34936,-38.70661],[143.35025,-38.70496],[143.35335,-38.71085],[143.36244,-38.71179],[143.3638,-38.70745],[143.36488,-38.70689],[143.36578,-38.70162],[143.36994,-38.70207],[143.37018,-38.70031],[143.38365,-38.70164],[143.38622,-38.69765],[143.38575,-38.69655],[143.38653,-38.69649],[143.38802,-38.69669],[143.3875,-38.69718],[143.38913,-38.69966],[143.38813,-38.70118],[143.38765,-38.70407],[143.40459,-38.70588],[143.40347,-38.71295],[143.41061,-38.7138],[143.40975,-38.71916],[143.41719,-38.71969],[143.4165,-38.71893],[143.41642,-38.71769],[143.41464,-38.7168],[143.41436,-38.71532],[143.41442,-38.71472],[143.41573,-38.71488],[143.4166,-38.71375],[143.41655,-38.71247],[143.41732,-38.71183],[143.41643,-38.71029],[143.41442,-38.70893],[143.41414,-38.708],[143.41022,-38.70548],[143.41094,-38.70503],[143.41103,-38.70317],[143.4117,-38.70264],[143.41155,-38.70122],[143.40945,-38.697],[143.40715,-38.69385],[143.40931,-38.69189],[143.41012,-38.69033],[143.41005,-38.68643],[143.4116,-38.68644],[143.41416,-38.68499],[143.41435,-38.6834],[143.41342,-38.6819],[143.41373,-38.68037],[143.41292,-38.67946],[143.41445,-38.67699],[143.41544,-38.67664],[143.41587,-38.67511],[143.42511,-38.67609],[143.42683,-38.66723],[143.42779,-38.66654],[143.41935,-38.66359],[143.4215,-38.65942],[143.41956,-38.65621],[143.42081,-38.65495],[143.42061,-38.65266],[143.41809,-38.65213],[143.42899,-38.64246],[143.42683,-38.64159],[143.4269,-38.64057],[143.42568,-38.64027],[143.42557,-38.639],[143.42461,-38.63841],[143.42443,-38.63675],[143.42259,-38.63565],[143.42269,-38.63442],[143.42438,-38.63106],[143.41976,-38.62686],[143.4195,-38.62382],[143.4199,-38.62247],[143.41907,-38.6209],[143.41934,-38.61985],[143.41633,-38.61512],[143.40377,-38.62209],[143.39237,-38.62682],[143.36923,-38.63068],[143.36862,-38.63232],[143.36643,-38.63304],[143.36558,-38.63396],[143.36536,-38.63512],[143.36703,-38.63848],[143.36608,-38.64019],[143.36446,-38.64016],[143.36244,-38.64114],[143.35658,-38.64216],[143.35137,-38.63981],[143.34645,-38.64111],[143.346,-38.64209],[143.3391,-38.64156],[143.32971,-38.64408],[143.32945,-38.6445],[143.33011,-38.64504],[143.32979,-38.64625],[143.33141,-38.64827],[143.33064,-38.65077],[143.33072,-38.65417],[143.3313,-38.65463],[143.3311,-38.65693],[143.33143,-38.65721],[143.33284,-38.65651],[143.33463,-38.66107],[143.33548,-38.66193],[143.34143,-38.66312],[143.34548,-38.66326],[143.34738,-38.66477],[143.35047,-38.67143],[143.35185,-38.67236],[143.35426,-38.67278],[143.35459,-38.67337],[143.3529,-38.67384],[143.35215,-38.67532],[143.3512,-38.67537],[143.34798,-38.67456],[143.34247,-38.67533],[143.33763,-38.67456],[143.33723,-38.67394],[143.32959,-38.67847],[143.33376,-38.68274],[143.33417,-38.68402],[143.3201,-38.68831]]]]}},{"type":"Feature","properties":{"name":"Leopold","made_of":["Leopold"],"osm":["relation/2455792"]},"geometry":{"type":"MultiPolygon","coordinates":[[[[144.42185,-38.22024],[144.42357,-38.22155],[144.4237,-38.22467],[144.42365,-38.22828],[144.42222,-38.23119],[144.42235,-38.23265],[144.42308,-38.23275],[144.42299,-38.23137],[144.42348,-38.23121],[144.42462,-38.23374],[144.4271,-38.23471],[144.43115,-38.23117],[144.43402,-38.23078],[144.43408,-38.22732],[144.43735,-38.22439],[144.44156,-38.22387],[144.44422,-38.22456],[144.44546,-38.22584],[144.44571,-38.22799],[144.44623,-38.22813],[144.44892,-38.22277],[144.45134,-38.22069],[144.45239,-38.21899],[144.45326,-38.21518],[144.45532,-38.2116],[144.45663,-38.21026],[144.45795,-38.20984],[144.46603,-38.2097],[144.47111,-38.21086],[144.47636,-38.21257],[144.4842,-38.21669],[144.48672,-38.21689],[144.48794,-38.21142],[144.49507,-38.21234],[144.49689,-38.2047],[144.49856,-38.20554],[144.50325,-38.18192],[144.50277,-38.18168],[144.50318,-38.17967],[144.48549,-38.17755],[144.48806,-38.16386],[144.47931,-38.16476],[144.47341,-38.1643],[144.46511,-38.16201],[144.45796,-38.1588],[144.45814,-38.15846],[144.45659,-38.15815],[144.451,-38.18597],[144.4467,-38.18494],[144.44448,-38.19585],[144.4416,-38.19539],[144.43761,-38.19771],[144.44074,-38.20175],[144.43615,-38.21583],[144.43514,-38.21748],[144.43204,-38.21779],[144.43074,-38.21931],[144.42646,-38.22032],[144.42185,-38.22024]]]]}},{"type":"Feature","properties":{"name":"Little River","made_of":["Little River"],"osm":["relation/2448033"]},"geometry":{"type":"MultiPolygon","coordinates":[[[[144.3514,-37.95905],[144.46148,-37.97154],[144.45905,-37.98601],[144.48434,-37.98882],[144.48374,-37.99209],[144.4825,-37.99276],[144.48347,-37.99394],[144.47933,-37.99665],[144.4804,-37.99865],[144.48711,-38.00429],[144.51364,-37.99215],[144.5469,-37.97512],[144.56501,-37.96446],[144.60015,-37.94527],[144.59732,-37.94191],[144.57897,-37.93977],[144.5804,-37.93143],[144.5822,-37.93074],[144.58163,-37.92979],[144.59107,-37.92609],[144.50829,-37.91708],[144.51636,-37.87402],[144.4531,-37.86706],[144.45488,-37.86778],[144.45436,-37.86933],[144.45584,-37.87033],[144.45446,-37.87131],[144.4532,-37.8712],[144.45271,-37.87207],[144.45049,-37.8722],[144.44854,-37.87351],[144.44706,-37.87221],[144.44776,-37.87102],[144.44486,-37.87038],[144.44448,-37.86905],[144.44287,-37.86864],[144.439,-37.86904],[144.4383,-37.8671],[144.43408,-37.86611],[144.43323,-37.86748],[144.43196,-37.8674],[144.43074,-37.86831],[144.43127,-37.86874],[144.42956,-37.86874],[144.42849,-37.8696],[144.42843,-37.87014],[144.42952,-37.87113],[144.42934,-37.87189],[144.42586,-37.87192],[144.42449,-37.87318],[144.42279,-37.87296],[144.42057,-37.87351],[144.41927,-37.87529],[144.4162,-37.87591],[144.41708,-37.87778],[144.40481,-37.87638],[144.40074,-37.89816],[144.38631,-37.89602],[144.38091,-37.89293],[144.37556,-37.89198],[144.36711,-37.89282],[144.37131,-37.90271],[144.352,-37.9561],[144.3514,-37.95905]]]]}},{"type":"Feature","properties":{"name":"Lorne","made_of":["Lorne"],"osm":["relation/2732599"]},"geometry":{"type":"MultiPolygon","coordinates":[[[[143.82453,-38.56659],[143.9461,-38.57943],[143.94923,-38.57657],[143.95322,-38.57632],[143.95487,-38.57675],[143.95701,-38.57547],[143.96011,-38.57565],[143.96498,-38.57084],[143.96657,-38.5672],[143.97014,-38.56734],[143.97365,-38.566],[143.97669,-38.56093],[143.97614,-38.55907],[143.9769,-38.55671],[143.97559,-38.55648],[143.97538,-38.55564],[143.98185,-38.55509],[143.98421,-38.55341],[143.98483,-38.55206],[143.98605,-38.55146],[143.986,-38.54995],[143.98684,-38.54848],[143.98652,-38.54772],[143.97722,-38.54229],[143.97766,-38.53728],[143.97948,-38.53289],[143.98908,-38.52049],[143.99332,-38.51743],[143.99902,-38.51184],[144.00102,-38.51131],[144.00265,-38.51004],[144.00535,-38.50555],[144.00575,-38.50172],[144.01153,-38.49833],[144.01222,-38.49737],[144.00993,-38.49649],[144.00875,-38.49532],[143.985,-38.46715],[143.97788,-38.47805],[143.95376,-38.49028],[143.95246,-38.49105],[143.95303,-38.49164],[143.94942,-38.49385],[143.87877,-38.50825],[143.87756,-38.51468],[143.86157,-38.51304],[143.86218,-38.51526],[143.85957,-38.51644],[143.85799,-38.51797],[143.85459,-38.52565],[143.85172,-38.52779],[143.85098,-38.52987],[143.85154,-38.53257],[143.85093,-38.53359],[143.85209,-38.536],[143.85171,-38.53772],[143.85207,-38.53903],[143.85149,-38.54145],[143.85192,-38.5447],[143.85059,-38.54692],[143.84517,-38.54874],[143.84355,-38.55099],[143.84268,-38.55341],[143.84315,-38.55528],[143.83786,-38.55881],[143.83491,-38.55805],[143.83224,-38.5583],[143.829,-38.55713],[143.82619,-38.55735],[143.82453,-38.56659]]]]}},{"type":"Feature","properties":{"name":"Moggs Creek","made_of":["Moggs Creek"],"osm":["relation/11691439"]},"geometry":{"type":"MultiPolygon","coordinates":[[[[144.05512,-38.47076],[144.06656,-38.46874],[144.06758,-38.4692],[144.07441,-38.46893],[144.0743,-38.46699],[144.0698,-38.46798],[144.06972,-38.46646],[144.07266,-38.46414],[144.07415,-38.46409],[144.074,-38.46191],[144.07106,-38.46197],[144.07023,-38.46105],[144.07534,-38.45711],[144.07357,-38.45692],[144.07638,-38.45041],[144.07862,-38.44809],[144.0795,-38.44337],[144.06278,-38.44107],[144.0623,-38.44376],[144.06406,-38.44397],[144.06221,-38.4542],[144.05811,-38.45374],[144.05512,-38.47076]]]]}},{"type":"Feature","properties":{"name":"Moriac","made_of":["Moriac"],"osm":["relation/2732101"]},"geometry":{"type":"MultiPolygon","coordinates":[[[[144.14464,-38.25565],[144.16013,-38.25759],[144.16049,-38.2557],[144.16243,-38.25596],[144.16224,-38.25693],[144.16314,-38.25705],[144.16181,-38.26453],[144.16552,-38.26258],[144.1666,-38.26338],[144.16836,-38.26328],[144.16864,-38.26484],[144.1712,-38.26486],[144.17528,-38.26671],[144.17723,-38.26613],[144.18093,-38.26764],[144.18189,-38.26683],[144.18348,-38.26662],[144.18383,-38.26602],[144.18522,-38.26653],[144.18791,-38.26561],[144.18928,-38.26454],[144.18779,-38.26342],[144.18827,-38.26189],[144.19044,-38.2605],[144.19113,-38.26117],[144.19256,-38.26039],[144.19274,-38.26141],[144.19339,-38.26167],[144.19479,-38.26065],[144.19645,-38.26076],[144.20019,-38.25933],[144.20483,-38.23343],[144.14999,-38.22687],[144.14464,-38.25565]]]]}},{"type":"Feature","properties":{"name":"Mt Duneed","made_of":["Mt Duneed"],"osm":["relation/2723384"]},"geometry":{"type":"MultiPolygon","coordinates":[[[[144.24133,-38.23778],[144.29611,-38.24438],[144.29176,-38.26722],[144.29319,-38.26707],[144.29287,-38.26746],[144.29343,-38.26827],[144.29276,-38.26939],[144.29346,-38.27062],[144.29107,-38.27085],[144.28894,-38.28204],[144.35252,-38.28957],[144.35997,-38.25174],[144.35082,-38.25055],[144.35157,-38.24667],[144.34231,-38.24557],[144.34263,-38.24396],[144.33338,-38.24285],[144.33947,-38.21098],[144.33575,-38.21159],[144.32913,-38.21392],[144.32021,-38.21384],[144.30272,-38.21643],[144.24279,-38.22946],[144.24133,-38.23778]]]]}},{"type":"Feature","properties":{"name":"Ocean Grove","made_of":["Ocean Grove"],"osm":["relation/2455521"]},"geometry":{"type":"MultiPolygon","coordinates":[[[[144.4966,-38.28261],[144.49766,-38.28262],[144.4974,-38.28386],[144.49908,-38.28346],[144.50341,-38.27804],[144.50876,-38.27473],[144.5128,-38.27332],[144.52567,-38.27143],[144.53629,-38.27152],[144.54944,-38.27277],[144.57239,-38.27822],[144.57368,-38.27663],[144.57478,-38.2736],[144.57958,-38.26763],[144.55796,-38.25931],[144.56868,-38.2469],[144.54707,-38.23575],[144.54757,-38.23324],[144.54555,-38.233],[144.54492,-38.23561],[144.5401,-38.23496],[144.53688,-38.25098],[144.51393,-38.24817],[144.51408,-38.24771],[144.50978,-38.24712],[144.5093,-38.24827],[144.50455,-38.24726],[144.50303,-38.25175],[144.50311,-38.2536],[144.50193,-38.25346],[144.5008,-38.25587],[144.50178,-38.25624],[144.50114,-38.25749],[144.50426,-38.25998],[144.50497,-38.26371],[144.50736,-38.26466],[144.50825,-38.26591],[144.50807,-38.26761],[144.49951,-38.27504],[144.49742,-38.27929],[144.4966,-38.28261]]]]}},{"type":"Feature","properties":{"name":"Point Lonsdale","made_of":["Point Lonsdale"],"osm":["relation/2455514"]},"geometry":{"type":"MultiPolygon","coordinates":[[[[144.57239,-38.27822],[144.58284,-38.28172],[144.58935,-38.28452],[144.60384,-38.28873],[144.60748,-38.29064],[144.61435,-38.29231],[144.61641,-38.2877],[144.61501,-38.28573],[144.61514,-38.28348],[144.61849,-38.27737],[144.62418,-38.27457],[144.6305,-38.27313],[144.63401,-38.27291],[144.63368,-38.27142],[144.62497,-38.27245],[144.62078,-38.26997],[144.61764,-38.26551],[144.61795,-38.26429],[144.61442,-38.2588],[144.61338,-38.25621],[144.61709,-38.25164],[144.62966,-38.24525],[144.61897,-38.23927],[144.61272,-38.24674],[144.60537,-38.24258],[144.60313,-38.24527],[144.60535,-38.24493],[144.60583,-38.24565],[144.60761,-38.2449],[144.60824,-38.24583],[144.60646,-38.24658],[144.60691,-38.24724],[144.60544,-38.24787],[144.60181,-38.24727],[144.60197,-38.24667],[144.59813,-38.25129],[144.60177,-38.25108],[144.60163,-38.25205],[144.60557,-38.253],[144.60577,-38.2545],[144.60646,-38.25449],[144.60358,-38.25807],[144.59112,-38.25149],[144.58372,-38.26002],[144.58282,-38.2634],[144.5799,-38.264],[144.57754,-38.26686],[144.57958,-38.26763],[144.57478,-38.2736],[144.57368,-38.27663],[144.57239,-38.27822]]]]}},{"type":"Feature","properties":{"name":"Portarlington","made_of":["Portarlington"],"osm":["relation/2440086"]},"geometry":{"type":"MultiPolygon","coordinates":[[[[144.62036,-38.11522],[144.62072,-38.11581],[144.62473,-38.11413],[144.62498,-38.11452],[144.62571,-38.11422],[144.62893,-38.11161],[144.62851,-38.11386],[144.62889,-38.11407],[144.62849,-38.11399],[144.62807,-38.11623],[144.6286,-38.11628],[144.62657,-38.12763],[144.6535,-38.13099],[144.64645,-38.16743],[144.68273,-38.17177],[144.69273,-38.12046],[144.67801,-38.1155],[144.67225,-38.11477],[144.66911,-38.11287],[144.66562,-38.11203],[144.66139,-38.11198],[144.65885,-38.11287],[144.65458,-38.11332],[144.64988,-38.11284],[144.63784,-38.10845],[144.63365,-38.10778],[144.62958,-38.1086],[144.63014,-38.10858],[144.62976,-38.1094],[144.62488,-38.11334],[144.62036,-38.11522]]]]}},{"type":"Feature","properties":{"name":"Queenscliff","made_of":["Queenscliff"],"osm":["relation/2455518"]},"geometry":{"type":"MultiPolygon","coordinates":[[[[144.61865,-38.26652],[144.62045,-38.26968],[144.62497,-38.27245],[144.63368,-38.27142],[144.63401,-38.27291],[144.63574,-38.273],[144.64348,-38.27195],[144.64758,-38.27212],[144.65931,-38.27484],[144.66294,-38.27166],[144.66345,-38.26947],[144.66454,-38.26844],[144.67318,-38.26594],[144.6734,-38.26467],[144.67167,-38.26408],[144.67222,-38.26278],[144.67526,-38.26021],[144.67981,-38.25888],[144.66691,-38.25772],[144.6672,-38.25901],[144.66677,-38.2604],[144.66487,-38.26123],[144.66531,-38.26288],[144.66438,-38.26333],[144.66344,-38.2631],[144.66251,-38.26387],[144.65818,-38.26366],[144.65492,-38.26605],[144.65118,-38.26711],[144.64837,-38.26666],[144.64255,-38.26996],[144.63523,-38.27012],[144.63292,-38.26995],[144.63244,-38.26937],[144.63461,-38.26693],[144.63693,-38.26689],[144.63707,-38.26631],[144.62605,-38.25766],[144.61865,-38.26652]]]]}},{"type":"Feature","properties":{"name":"Shelford","made_of":["Shelford"],"osm":["relation/3122723"]},"geometry":{"type":"MultiPolygon","coordinates":[[[[143.83975,-37.96766],[143.84257,-37.96878],[143.84413,-37.96772],[143.85769,-37.9727],[143.85811,-37.97048],[143.86967,-37.97174],[143.87051,-37.96749],[143.87768,-37.96667],[143.88045,-37.97074],[143.88157,-37.96972],[143.88324,-37.9716],[143.88804,-37.97253],[143.88943,-37.98061],[143.88613,-37.98102],[143.88459,-37.99721],[143.89258,-37.99822],[143.89055,-38.00851],[143.89843,-38.0095],[143.89915,-38.01096],[143.89835,-38.01277],[143.90083,-38.01319],[143.89997,-38.01473],[143.90011,-38.01585],[143.90113,-38.01602],[143.90162,-38.01736],[143.90312,-38.01723],[143.90656,-38.02487],[143.89298,-38.02595],[143.89326,-38.03453],[143.91976,-38.03772],[143.91897,-38.04188],[143.97887,-38.0484],[143.97741,-38.04704],[143.97729,-38.04574],[143.98281,-38.04626],[143.9828,-38.04682],[143.98459,-38.04677],[143.98787,-38.04911],[143.98808,-38.04842],[143.9891,-38.04875],[143.98973,-38.04807],[143.99086,-38.04872],[143.99171,-38.04826],[143.99298,-38.04848],[143.99401,-38.04799],[143.99362,-38.04708],[143.99405,-38.04677],[143.99574,-38.0471],[143.99498,-38.04757],[143.99544,-38.04782],[143.99916,-38.0463],[143.9964,-38.03855],[143.99972,-38.03178],[144.00221,-38.01561],[144.01128,-38.01784],[144.01369,-38.00399],[144.01714,-38.00437],[144.01762,-38.00402],[144.01874,-37.99651],[144.02485,-37.9978],[144.02516,-37.9964],[144.03695,-37.99775],[144.03754,-37.99459],[144.03546,-37.98878],[144.03936,-37.9833],[144.04007,-37.97932],[144.02147,-37.98134],[144.01991,-37.98059],[144.00269,-37.97818],[143.99004,-37.97917],[143.99649,-37.94704],[143.9842,-37.94568],[143.98296,-37.94466],[143.98084,-37.94631],[143.98053,-37.94594],[143.97843,-37.94633],[143.97723,-37.94355],[143.97946,-37.94119],[143.97569,-37.93931],[143.97409,-37.94003],[143.97381,-37.94148],[143.97203,-37.94106],[143.97168,-37.93808],[143.96963,-37.93688],[143.96911,-37.93537],[143.96609,-37.93268],[143.96594,-37.9315],[143.96202,-37.92978],[143.96079,-37.92996],[143.96134,-37.92721],[143.96089,-37.92622],[143.9603,-37.92619],[143.95951,-37.92744],[143.95725,-37.92822],[143.95702,-37.93019],[143.95451,-37.92924],[143.95271,-37.92713],[143.95316,-37.92598],[143.9522,-37.92065],[143.94874,-37.91572],[143.94798,-37.91028],[143.94861,-37.90968],[143.95149,-37.9091],[143.94958,-37.90644],[143.95184,-37.90597],[143.95182,-37.90466],[143.94567,-37.90295],[143.94463,-37.90098],[143.9412,-37.90208],[143.93911,-37.90007],[143.9379,-37.89977],[143.93713,-37.89851],[143.93917,-37.89834],[143.93945,-37.89789],[143.93801,-37.89649],[143.93563,-37.89608],[143.93544,-37.89561],[143.93647,-37.89411],[143.93584,-37.89193],[143.90801,-37.88842],[143.90772,-37.8888],[143.88863,-37.88665],[143.88785,-37.89094],[143.87298,-37.88922],[143.87377,-37.8849],[143.86252,-37.88345],[143.86149,-37.88542],[143.86153,-37.88786],[143.8602,-37.88877],[143.85851,-37.88902],[143.85654,-37.89274],[143.8568,-37.89358],[143.85846,-37.89427],[143.85772,-37.89755],[143.85158,-37.89915],[143.85018,-37.90063],[143.84993,-37.90311],[143.84924,-37.90412],[143.85033,-37.90512],[143.84925,-37.90723],[143.84907,-37.90922],[143.84807,-37.91014],[143.84869,-37.9126],[143.85018,-37.91352],[143.84467,-37.94244],[143.84874,-37.94336],[143.85167,-37.9425],[143.85464,-37.94246],[143.85609,-37.94297],[143.85469,-37.95091],[143.84316,-37.94958],[143.83975,-37.96766]]]]}},{"type":"Feature","properties":{"name":"Skenes Creek","made_of":["Skenes Creek"],"osm":["relation/2738126"]},"geometry":{"type":"MultiPolygon","coordinates":[[[[143.68969,-38.70965],[143.69156,-38.71081],[143.69305,-38.71655],[143.69574,-38.71896],[143.69678,-38.72028],[143.69626,-38.72063],[143.70137,-38.72669],[143.70175,-38.72944],[143.70462,-38.72809],[143.70946,-38.72759],[143.71005,-38.72705],[143.70977,-38.72619],[143.71105,-38.72539],[143.71352,-38.72503],[143.71447,-38.72591],[143.71684,-38.72563],[143.72165,-38.72332],[143.72266,-38.72225],[143.72582,-38.72193],[143.72226,-38.71819],[143.72573,-38.71852],[143.72699,-38.71685],[143.72721,-38.71542],[143.72822,-38.71508],[143.72524,-38.70951],[143.73359,-38.70696],[143.73216,-38.70391],[143.71951,-38.70252],[143.71867,-38.70708],[143.71311,-38.70647],[143.71175,-38.70404],[143.70612,-38.69734],[143.70549,-38.69562],[143.69547,-38.69456],[143.69738,-38.69776],[143.70021,-38.69848],[143.7011,-38.69964],[143.70275,-38.69962],[143.70335,-38.70186],[143.70237,-38.70207],[143.70177,-38.70441],[143.70229,-38.70519],[143.70204,-38.70621],[143.70328,-38.70662],[143.70112,-38.70846],[143.69019,-38.70721],[143.68969,-38.70965]]]]}},{"type":"Feature","properties":{"name":"St Leonards","made_of":["St Leonards"],"osm":["relation/2446191"]},"geometry":{"type":"MultiPolygon","coordinates":[[[[144.6409,-38.19633],[144.68126,-38.20119],[144.6822,-38.20008],[144.68289,-38.2001],[144.68256,-38.19902],[144.68306,-38.19996],[144.68613,-38.1978],[144.69053,-38.19625],[144.69307,-38.19446],[144.69432,-38.19442],[144.69777,-38.19666],[144.69685,-38.199],[144.69862,-38.20009],[144.70054,-38.1995],[144.70197,-38.19976],[144.70303,-38.20069],[144.70371,-38.2024],[144.70171,-38.20606],[144.70176,-38.20903],[144.6995,-38.21367],[144.69399,-38.21712],[144.69557,-38.21819],[144.69845,-38.2172],[144.6956,-38.21975],[144.69696,-38.21981],[144.69874,-38.21904],[144.69849,-38.21869],[144.69932,-38.21772],[144.7019,-38.21599],[144.70046,-38.21789],[144.70016,-38.21973],[144.7007,-38.21984],[144.70625,-38.21047],[144.70714,-38.20642],[144.71049,-38.19784],[144.71086,-38.19464],[144.71156,-38.19386],[144.71277,-38.18862],[144.7149,-38.18482],[144.71645,-38.17902],[144.72005,-38.17368],[144.7201,-38.17155],[144.71814,-38.16768],[144.71648,-38.16221],[144.7167,-38.15351],[144.7173,-38.15026],[144.70615,-38.14886],[144.70688,-38.14508],[144.68835,-38.14279],[144.68273,-38.17177],[144.64645,-38.16743],[144.6409,-38.19633]]]]}},{"type":"Feature","properties":{"name":"Torquay","made_of":["Torquay"],"osm":["relation/2723386"]},"geometry":{"type":"MultiPolygon","coordinates":[[[[144.28012,-38.32844],[144.28365,-38.32704],[144.28547,-38.32753],[144.28621,-38.32904],[144.28937,-38.33094],[144.29039,-38.3305],[144.29245,-38.33116],[144.29573,-38.33125],[144.29816,-38.33047],[144.30046,-38.33103],[144.30302,-38.33061],[144.30461,-38.33867],[144.31134,-38.33924],[144.31483,-38.33805],[144.31614,-38.34011],[144.31773,-38.34004],[144.31716,-38.34231],[144.3189,-38.34388],[144.31959,-38.34248],[144.32133,-38.34126],[144.32753,-38.34012],[144.32558,-38.33857],[144.3251,-38.33718],[144.3259,-38.33429],[144.32798,-38.33158],[144.32746,-38.32769],[144.32821,-38.32645],[144.3322,-38.3234],[144.34083,-38.31979],[144.34754,-38.31823],[144.35464,-38.31772],[144.37082,-38.31216],[144.37651,-38.30847],[144.37877,-38.30588],[144.37912,-38.30462],[144.37781,-38.30337],[144.37673,-38.3031],[144.37479,-38.30111],[144.37466,-38.30031],[144.37368,-38.30011],[144.37157,-38.29306],[144.37178,-38.29186],[144.28894,-38.28204],[144.28012,-38.32844]]]]}},{"type":"Feature","properties":{"name":"Wallington","made_of":["Wallington"],"osm":["relation/2455523"]},"geometry":{"type":"MultiPolygon","coordinates":[[[[144.46138,-38.22894],[144.46243,-38.23057],[144.4628,-38.22842],[144.46399,-38.22867],[144.46305,-38.23018],[144.46333,-38.23097],[144.4641,-38.23116],[144.46269,-38.233],[144.46565,-38.23192],[144.46683,-38.23338],[144.4662,-38.23501],[144.46636,-38.23796],[144.46485,-38.23803],[144.46446,-38.24043],[144.46402,-38.2407],[144.46381,-38.23996],[144.46298,-38.24083],[144.46411,-38.24224],[144.46667,-38.2424],[144.46801,-38.24068],[144.46951,-38.24032],[144.47024,-38.24072],[144.47072,-38.2432],[144.47158,-38.24367],[144.47441,-38.24332],[144.48273,-38.24529],[144.48345,-38.24662],[144.48057,-38.25425],[144.48272,-38.25576],[144.48473,-38.2585],[144.48736,-38.25865],[144.48812,-38.2591],[144.48917,-38.26134],[144.49288,-38.26239],[144.49533,-38.26459],[144.50497,-38.26371],[144.50426,-38.25998],[144.50114,-38.25749],[144.50178,-38.25624],[144.5008,-38.25587],[144.50193,-38.25346],[144.50311,-38.2536],[144.50303,-38.25175],[144.50455,-38.24726],[144.5093,-38.24827],[144.50978,-38.24712],[144.51408,-38.24771],[144.51393,-38.24817],[144.53688,-38.25098],[144.5401,-38.23496],[144.54492,-38.23561],[144.54555,-38.233],[144.54757,-38.23324],[144.54707,-38.23575],[144.54909,-38.23681],[144.55267,-38.219],[144.5508,-38.21878],[144.55303,-38.21737],[144.55413,-38.21137],[144.54888,-38.21074],[144.54933,-38.20843],[144.55468,-38.20907],[144.55626,-38.20087],[144.54322,-38.1993],[144.54293,-38.20081],[144.53763,-38.20019],[144.53791,-38.19873],[144.51018,-38.19533],[144.51053,-38.19353],[144.50126,-38.19239],[144.49856,-38.20554],[144.49689,-38.2047],[144.49507,-38.21234],[144.48794,-38.21142],[144.48672,-38.21689],[144.48774,-38.21787],[144.48674,-38.22001],[144.48563,-38.22086],[144.48154,-38.22164],[144.48033,-38.22271],[144.47837,-38.2232],[144.47325,-38.22301],[144.46499,-38.22495],[144.46307,-38.22655],[144.46138,-38.22894]]]]}},{"type":"Feature","properties":{"name":"Warrnambool","made_of":["Warrnambool"],"osm":["relation/3161053"]},"geometry":{"type":"MultiPolygon","coordinates":[[[[142.43628,-38.36524],[142.43803,-38.36706],[142.43872,-38.36946],[142.44096,-38.3722],[142.43867,-38.37419],[142.43861,-38.38289],[142.44104,-38.38358],[142.44591,-38.38629],[142.44893,-38.3898],[142.45535,-38.39303],[142.45578,-38.39473],[142.45706,-38.39559],[142.45788,-38.3952],[142.45895,-38.3967],[142.46343,-38.39723],[142.46471,-38.39888],[142.46676,-38.39808],[142.46849,-38.3986],[142.47,-38.40112],[142.47136,-38.40067],[142.46994,-38.39946],[142.47063,-38.39743],[142.46948,-38.39691],[142.4698,-38.3978],[142.46892,-38.39598],[142.46721,-38.39509],[142.46837,-38.39534],[142.47066,-38.3973],[142.47171,-38.39667],[142.47155,-38.40166],[142.47215,-38.40282],[142.47314,-38.40218],[142.475,-38.40252],[142.4752,-38.404],[142.47648,-38.40272],[142.48085,-38.40141],[142.48068,-38.40102],[142.47896,-38.40155],[142.47863,-38.40087],[142.476,-38.40167],[142.4764,-38.39795],[142.4792,-38.39487],[142.48416,-38.39357],[142.49105,-38.39361],[142.49848,-38.39597],[142.50312,-38.39953],[142.50723,-38.40088],[142.50776,-38.4014],[142.50753,-38.40207],[142.50838,-38.4023],[142.51013,-38.40028],[142.50938,-38.3991],[142.50959,-38.39674],[142.51135,-38.39696],[142.51217,-38.39939],[142.511,-38.40242],[142.51161,-38.40339],[142.51593,-38.40327],[142.52694,-38.40554],[142.53531,-38.4089],[142.54064,-38.41223],[142.54244,-38.41217],[142.54423,-38.41317],[142.54583,-38.40363],[142.54865,-38.40393],[142.55726,-38.35504],[142.55014,-38.35212],[142.5425,-38.35443],[142.5448,-38.35101],[142.54446,-38.34828],[142.54644,-38.34662],[142.5213,-38.34412],[142.52148,-38.34304],[142.50439,-38.34108],[142.50534,-38.33587],[142.49806,-38.33342],[142.4988,-38.32824],[142.48216,-38.3265],[142.48255,-38.328],[142.48063,-38.32809],[142.48086,-38.32847],[142.47849,-38.33002],[142.4782,-38.33164],[142.47873,-38.33329],[142.46038,-38.33169],[142.46111,-38.32805],[142.45543,-38.32747],[142.45534,-38.32803],[142.44835,-38.32802],[142.4484,-38.34143],[142.45339,-38.34374],[142.45746,-38.34746],[142.45482,-38.36369],[142.45054,-38.3598],[142.45038,-38.36075],[142.43921,-38.35952],[142.43812,-38.35981],[142.43827,-38.36168],[142.43685,-38.36317],[142.43628,-38.36524]]]]}},{"type":"Feature","properties":{"name":"Werribee","made_of":["Werribee"],"osm":["relation/2431045"]},"geometry":{"type":"MultiPolygon","coordinates":[[[[144.57897,-37.93977],[144.59732,-37.94191],[144.60015,-37.94527],[144.62212,-37.93324],[144.62741,-37.92973],[144.64224,-37.92515],[144.69283,-37.90781],[144.70717,-37.89817],[144.7101,-37.89056],[144.70901,-37.88474],[144.70938,-37.88238],[144.71131,-37.88038],[144.71894,-37.87796],[144.71889,-37.87724],[144.70744,-37.88063],[144.68015,-37.89176],[144.68284,-37.87755],[144.66442,-37.87554],[144.66499,-37.87179],[144.65083,-37.87036],[144.65052,-37.8709],[144.65214,-37.87374],[144.65134,-37.87456],[144.65247,-37.87576],[144.65221,-37.87722],[144.64889,-37.87994],[144.64667,-37.87985],[144.64421,-37.87862],[144.64234,-37.87876],[144.6426,-37.88024],[144.64127,-37.88133],[144.64043,-37.88352],[144.64257,-37.88791],[144.63476,-37.88705],[144.63364,-37.88807],[144.63266,-37.88975],[144.63187,-37.89314],[144.63188,-37.89809],[144.63082,-37.90087],[144.62969,-37.90173],[144.59296,-37.89757],[144.58776,-37.92573],[144.59107,-37.92609],[144.58163,-37.92979],[144.5822,-37.93074],[144.5804,-37.93143],[144.57897,-37.93977]]]]}},{"type":"Feature","properties":{"name":"Winchelsea","made_of":["Winchelsea"],"osm":["relation/2732602"]},"geometry":{"type":"MultiPolygon","coordinates":[[[[143.81494,-38.28493],[143.81958,-38.28546],[143.82115,-38.27726],[143.82568,-38.27779],[143.82276,-38.29325],[143.82884,-38.29278],[143.84097,-38.28785],[143.84451,-38.28772],[143.85168,-38.28445],[143.84886,-38.2991],[143.85615,-38.30351],[143.85808,-38.30361],[143.86122,-38.30534],[143.86844,-38.30521],[143.8815,-38.30874],[143.88604,-38.30891],[143.88721,-38.30978],[143.88799,-38.30933],[143.89016,-38.31064],[143.89014,-38.31129],[143.89446,-38.31388],[143.89803,-38.31423],[143.90198,-38.31284],[143.9029,-38.31202],[143.90309,-38.3109],[143.90513,-38.30938],[143.90652,-38.30957],[143.90769,-38.31057],[143.91094,-38.30958],[143.91237,-38.30971],[143.91211,-38.30868],[143.91533,-38.30727],[143.91765,-38.30457],[143.92006,-38.30356],[143.92042,-38.30244],[143.92253,-38.30107],[143.92238,-38.3002],[143.92463,-38.30033],[143.92532,-38.29975],[143.92697,-38.2996],[143.93151,-38.30099],[143.93262,-38.30245],[143.93285,-38.30163],[143.93458,-38.30232],[143.93575,-38.30143],[143.93474,-38.30097],[143.93741,-38.30029],[143.93746,-38.29929],[143.93889,-38.30193],[143.93738,-38.30218],[143.93441,-38.31752],[143.96133,-38.30624],[143.99008,-38.29631],[143.99428,-38.29385],[143.99603,-38.29362],[144.00691,-38.29704],[144.02561,-38.29371],[144.02696,-38.28585],[144.02957,-38.28518],[144.02665,-38.28052],[144.02739,-38.28107],[144.02929,-38.28038],[144.03493,-38.27645],[144.03891,-38.27455],[144.04095,-38.27248],[144.04379,-38.2719],[144.0455,-38.27214],[144.04771,-38.27354],[144.0505,-38.25946],[144.0461,-38.25894],[144.0524,-38.22568],[144.05619,-38.22443],[144.04977,-38.21473],[144.05793,-38.17188],[144.00313,-38.16554],[144.00246,-38.16918],[143.91894,-38.15929],[143.91849,-38.16204],[143.91361,-38.16067],[143.91072,-38.16273],[143.90888,-38.16273],[143.90977,-38.15942],[143.9118,-38.15766],[143.91156,-38.15546],[143.91211,-38.15471],[143.91137,-38.1541],[143.90797,-38.15651],[143.90354,-38.15341],[143.90257,-38.15163],[143.90107,-38.15052],[143.89458,-38.19283],[143.88942,-38.19908],[143.88049,-38.24747],[143.84134,-38.2429],[143.84007,-38.24981],[143.82189,-38.24764],[143.81494,-38.28493]]]]}},{"type":"Feature","properties":{"name":"Wye River","made_of":["Wye River"],"osm":["relation/2732603"]},"geometry":{"type":"MultiPolygon","coordinates":[[[[143.79615,-38.60084],[143.79663,-38.60371],[143.79871,-38.60572],[143.79841,-38.60694],[143.80105,-38.61011],[143.80406,-38.61188],[143.80528,-38.6138],[143.80825,-38.61619],[143.8089,-38.61767],[143.81335,-38.62054],[143.81436,-38.62323],[143.81734,-38.62315],[143.81613,-38.62595],[143.81706,-38.63033],[143.81603,-38.63213],[143.81719,-38.63425],[143.81939,-38.63534],[143.82165,-38.63557],[143.82293,-38.63742],[143.82209,-38.63874],[143.82506,-38.63961],[143.82696,-38.64158],[143.83535,-38.6431],[143.83724,-38.64525],[143.85147,-38.64695],[143.85025,-38.65356],[143.83964,-38.6524],[143.84022,-38.65352],[143.84281,-38.65487],[143.84551,-38.65514],[143.84993,-38.65683],[143.85673,-38.66104],[143.86006,-38.66084],[143.86032,-38.66146],[143.85932,-38.66206],[143.86197,-38.66345],[143.86281,-38.66534],[143.86387,-38.66484],[143.86433,-38.66199],[143.868,-38.65916],[143.86845,-38.65812],[143.87091,-38.65689],[143.87022,-38.65539],[143.87317,-38.6522],[143.87615,-38.65166],[143.88081,-38.64933],[143.88166,-38.64812],[143.88396,-38.64776],[143.88437,-38.64732],[143.88389,-38.64663],[143.88478,-38.64532],[143.88784,-38.6431],[143.88968,-38.64226],[143.8932,-38.64206],[143.89434,-38.64143],[143.89218,-38.63938],[143.89145,-38.63515],[143.89326,-38.63392],[143.896,-38.63304],[143.89762,-38.63159],[143.89171,-38.62814],[143.89165,-38.62752],[143.89022,-38.62642],[143.89003,-38.6243],[143.87941,-38.62306],[143.8812,-38.6205],[143.88125,-38.61861],[143.87947,-38.61711],[143.87953,-38.61376],[143.87523,-38.61149],[143.8745,-38.60961],[143.87514,-38.60938],[143.87485,-38.60796],[143.87561,-38.60668],[143.87422,-38.60589],[143.87256,-38.60301],[143.87174,-38.60356],[143.87069,-38.60246],[143.86968,-38.59962],[143.8679,-38.59957],[143.86635,-38.5981],[143.86142,-38.59665],[143.85781,-38.59778],[143.85659,-38.59623],[143.85244,-38.59534],[143.84884,-38.59677],[143.84851,-38.59755],[143.8456,-38.59787],[143.8446,-38.59942],[143.83958,-38.60157],[143.83897,-38.60286],[143.83688,-38.60451],[143.82812,-38.60333],[143.82174,-38.60004],[143.81748,-38.59915],[143.81564,-38.59768],[143.81459,-38.59747],[143.81358,-38.59802],[143.81247,-38.59671],[143.80549,-38.59784],[143.80262,-38.59631],[143.80249,-38.59696],[143.79968,-38.59894],[143.79689,-38.59911],[143.79615,-38.60084]]]]}}]}